{
"type": "FeatureCollection",
"name": "bigDistance",
"crs": { "type": "name", "properties": { "name": "urn:ogc:def:crs:EPSG::3857" } },
"features": [
{ "type": "Feature", "properties": { "facility_id": "COM01335.00", "facility_name": "Vindex", "facility_other_names": "Vindex Energy Corporation", "facility_type": "Mine", "primary_commodity": "Coal", "commodities_products": "Metallurgical coa, Thermal coal", "facility_equipment": "Surface", "production_start": null, "production_end": 2016.0, "activity_status": null, "activity_status_year": null, "surface_area_sq_km": null, "concession_area_sq_km": 165.51821, "country": "United States of America", "GID_0": "USA", "GID_1": "USA.47_1", "GID_2": "USA.47.4_1", "GID_3": null, "GID_4": null, "source_id": "det_1404", "comment": null, "Reserves_data": [ { "id": 977, "year": 2013, "material": "F.coal", "commodity": NaN, "mineral_value_tonnes": 3538080.0, "commodity_value_tonnes": NaN, "grade_ppm": NaN, "source_id": "det_1403", "comment": NaN } ], "index_right": 9465, "ISO3_CODE": "USA", "COUNTRY_NAME": "United States", "AREA": 2.0340472155204368, "distance": 90269.16635197126 }, "geometry": { "type": "MultiPoint", "coordinates": [ [ -8879833.582470282912254, 4550874.494466233998537 ] ] } },
{ "type": "Feature", "properties": { "facility_id": "COM01195.00", "facility_name": "Simberi", "facility_other_names": null, "facility_type": "Mine", "primary_commodity": "Gold", "commodities_products": "Gold", "facility_equipment": "Open pit", "production_start": 2008.0, "production_end": null, "activity_status": null, "activity_status_year": null, "surface_area_sq_km": null, "concession_area_sq_km": null, "country": "Papua New Guinea", "GID_0": "PNG", "GID_1": "PNG.16_1", "GID_2": "PNG.16.2_1", "GID_3": null, "GID_4": null, "source_id": "det_1460", "comment": null, "Reserves_data": [ { "id": 869, "year": 2020, "material": "O.Au", "commodity": "Me.Au", "mineral_value_tonnes": 31053000.0, "commodity_value_tonnes": 58.68351261, "grade_ppm": 2.0610588348951797, "source_id": "det_1649", "comment": "Oxide ; Sulphide ; Stockpiles" } ], "index_right": 3921, "ISO3_CODE": "PNG", "COUNTRY_NAME": "Papua New Guinea", "AREA": 7.1052524281265139, "distance": 88508.690782877224 }, "geometry": { "type": "MultiPoint", "coordinates": [ [ 16920406.330276407301426, -292008.557412622030824 ] ] } },
{ "type": "Feature", "properties": { "facility_id": "COM01233.00", "facility_name": "SUEK Buryatia", "facility_other_names": null, "facility_type": "Mine", "primary_commodity": "Coal", "commodities_products": "Hard coal", "facility_equipment": null, "production_start": null, "production_end": null, "activity_status": null, "activity_status_year": null, "surface_area_sq_km": null, "concession_area_sq_km": null, "country": "Russian Federation", "GID_0": "RUS", "GID_1": "RUS.83_1", "GID_2": "RUS.83.27_1", "GID_3": "RUS.83.27.1_1", "GID_4": null, "source_id": "det_1553", "comment": null, "Reserves_data": [ { "id": 885, "year": 2020, "material": "F.coc", "commodity": NaN, "mineral_value_tonnes": 302000000.0, "commodity_value_tonnes": NaN, "grade_ppm": NaN, "source_id": "det_2882", "comment": NaN } ], "index_right": 18132, "ISO3_CODE": "RUS", "COUNTRY_NAME": "Russian Federation", "AREA": 6.4337017943748931, "distance": 82788.753069195023 }, "geometry": { "type": "MultiPoint", "coordinates": [ [ 12069006.9760114364326, 6663108.8894850788638 ] ] } },
{ "type": "Feature", "properties": { "facility_id": "COM00865.00", "facility_name": "Mt Muro", "facility_other_names": null, "facility_type": "Mine", "primary_commodity": "Gold", "commodities_products": "Gold, Silver", "facility_equipment": null, "production_start": null, "production_end": null, "activity_status": "inactive", "activity_status_year": 2014.0, "surface_area_sq_km": null, "concession_area_sq_km": 479.4, "country": "Indonesia", "GID_0": "IDN", "GID_1": "IDN.14_1", "GID_2": "IDN.14.10_1", "GID_3": "IDN.14.10.5_1", "GID_4": "IDN.14.10.5.3_1", "source_id": "det_1434", "comment": null, "Reserves_data": [ { "id": 605, "year": 2020, "material": "O.bulk", "commodity": "Me.Ag", "mineral_value_tonnes": 7586000.0, "commodity_value_tonnes": 7711100000.0, "grade_ppm": 42.0, "source_id": "det_2219", "comment": NaN }, { "id": 606, "year": 2020, "material": "O.bulk", "commodity": "Me.Au", "mineral_value_tonnes": 7586000.0, "commodity_value_tonnes": 458400000.0, "grade_ppm": 2.0, "source_id": "det_2219", "comment": NaN } ], "index_right": 4696, "ISO3_CODE": "IDN", "COUNTRY_NAME": "Indonesia", "AREA": 0.035359765463695243, "distance": 78778.613360853895 }, "geometry": { "type": "MultiPoint", "coordinates": [ [ 12690421.950433187186718, -1360.569090692197506 ] ] } },
{ "type": "Feature", "properties": { "facility_id": "COM00934.00", "facility_name": "Ok Tedi", "facility_other_names": null, "facility_type": "Mine", "primary_commodity": "Copper", "commodities_products": "Copper, Gold, Silver", "facility_equipment": "Open pit", "production_start": null, "production_end": null, "activity_status": null, "activity_status_year": null, "surface_area_sq_km": null, "concession_area_sq_km": null, "country": "Papua New Guinea", "GID_0": "PNG", "GID_1": "PNG.22_1", "GID_2": "PNG.22.2_1", "GID_3": null, "GID_4": null, "source_id": "det_1146", "comment": null, "Reserves_data": [ { "id": 658, "year": 2019, "material": "O.bulk", "commodity": "Me.Au", "mineral_value_tonnes": 216000000.0, "commodity_value_tonnes": NaN, "grade_ppm": NaN, "source_id": "det_1879", "comment": NaN }, { "id": 659, "year": 2019, "material": "O.bulk", "commodity": "Me.Cu", "mineral_value_tonnes": 216000000.0, "commodity_value_tonnes": NaN, "grade_ppm": NaN, "source_id": "det_1879", "comment": NaN } ], "index_right": 3787, "ISO3_CODE": "PNG", "COUNTRY_NAME": "Papua New Guinea", "AREA": 22.117906800411475, "distance": 73650.765280467152 }, "geometry": { "type": "MultiPoint", "coordinates": [ [ 15711363.463882304728031, -661776.598934368463233 ] ] } },
{ "type": "Feature", "properties": { "facility_id": "COM01239.00", "facility_name": "SUEK Zabaikalye", "facility_other_names": null, "facility_type": "Mine", "primary_commodity": "Coal", "commodities_products": "Hard coal, Brown coal", "facility_equipment": null, "production_start": null, "production_end": null, "activity_status": null, "activity_status_year": null, "surface_area_sq_km": null, "concession_area_sq_km": null, "country": "Russian Federation", "GID_0": "RUS", "GID_1": "RUS.83_1", "GID_2": "RUS.83.6_1 ; RUS.83.10_1 ; RUS.83.13_1", "GID_3": "RUS.83.6.1_1 ; RUS.83.10.1_1 ; RUS.83.13.1_1", "GID_4": null, "source_id": "det_1553", "comment": null, "Reserves_data": [ { "id": 892, "year": 2020, "material": "F.coc", "commodity": NaN, "mineral_value_tonnes": 70000000.0, "commodity_value_tonnes": NaN, "grade_ppm": NaN, "source_id": "det_2882", "comment": NaN }, { "id": 893, "year": 2020, "material": "F.lig", "commodity": NaN, "mineral_value_tonnes": 464000000.0, "commodity_value_tonnes": NaN, "grade_ppm": NaN, "source_id": "det_2882", "comment": NaN } ], "index_right": 34354, "ISO3_CODE": "RUS", "COUNTRY_NAME": "Russian Federation", "AREA": 0.54557768567059683, "distance": 54918.240360359036 }, "geometry": { "type": "MultiPoint", "coordinates": [ [ 13157722.217171551659703, 7784975.012035528197885 ] ] } },
{ "type": "Feature", "properties": { "facility_id": "COM00490.00", "facility_name": "Gosowong", "facility_other_names": "Toguraci", "facility_type": "Mine", "primary_commodity": "Gold", "commodities_products": "Gold, Silver", "facility_equipment": "Underground, Open pit", "production_start": null, "production_end": null, "activity_status": null, "activity_status_year": null, "surface_area_sq_km": null, "concession_area_sq_km": null, "country": "Indonesia", "GID_0": "IDN", "GID_1": "IDN.18_1", "GID_2": "IDN.18.5_1", "GID_3": "IDN.18.5.5_1", "GID_4": "IDN.18.5.5.1_1", "source_id": "det_1096", "comment": null, "Reserves_data": [ { "id": 323, "year": 2018, "material": "O.Au", "commodity": "Me.Ag", "mineral_value_tonnes": 1400000.0, "commodity_value_tonnes": 15.308742490200002, "grade_ppm": 12.0, "source_id": "det_2841", "comment": NaN }, { "id": 324, "year": 2018, "material": "O.Au", "commodity": "Me.Au", "mineral_value_tonnes": 1400000.0, "commodity_value_tonnes": 10.4893235581, "grade_ppm": 8.1, "source_id": "det_2841", "comment": NaN } ], "index_right": 4916, "ISO3_CODE": "IDN", "COUNTRY_NAME": "Indonesia", "AREA": 0.897967228509157, "distance": 48591.318255676153 }, "geometry": { "type": "MultiPoint", "coordinates": [ [ 14227607.117390975356102, 174904.759274053241825 ] ] } },
{ "type": "Feature", "properties": { "facility_id": "COM01346.00", "facility_name": "Wafi-Golpu", "facility_other_names": null, "facility_type": "Mine", "primary_commodity": "Other mine", "commodities_products": "Copper, Gold", "facility_equipment": "Open pit, Underground", "production_start": null, "production_end": null, "activity_status": "Exploration", "activity_status_year": 2018.0, "surface_area_sq_km": null, "concession_area_sq_km": null, "country": "Papua New Guinea", "GID_0": "PNG", "GID_1": "PNG.14_1", "GID_2": "PNG.14.1_1", "GID_3": null, "GID_4": null, "source_id": "det_1096", "comment": null, "Reserves_data": [ { "id": 979, "year": 2018, "material": "O.Au", "commodity": "Me.Au", "mineral_value_tonnes": 400000000.0, "commodity_value_tonnes": 311.84475443, "grade_ppm": 0.8600000000000001, "source_id": "det_2841", "comment": NaN }, { "id": 980, "year": 2018, "material": "O.Au", "commodity": "Me.Cu", "mineral_value_tonnes": 400000000.0, "commodity_value_tonnes": 5000000.0, "grade_ppm": 12000.0, "source_id": "det_2841", "comment": NaN } ], "index_right": 33371, "ISO3_CODE": "PNG", "COUNTRY_NAME": "Papua New Guinea", "AREA": 0.40288914034858064, "distance": 43474.191053703616 }, "geometry": { "type": "MultiPoint", "coordinates": [ [ 16302991.008724108338356, -765803.479024291737005 ] ] } },
{ "type": "Feature", "properties": { "facility_id": "COM00803.00", "facility_name": "MICARE Unit Mines Coahuila", "facility_other_names": null, "facility_type": "Mine", "primary_commodity": "Coal", "commodities_products": "Thermal coal", "facility_equipment": "Open pit, Underground", "production_start": null, "production_end": null, "activity_status": null, "activity_status_year": null, "surface_area_sq_km": null, "concession_area_sq_km": null, "country": "Mexico", "GID_0": "MEX", "GID_1": "MEX.7_1", "GID_2": "MEX.7.22_1", "GID_3": null, "GID_4": null, "source_id": "det_1371", "comment": "Micare Unit is comprised of two mines, one in Coahuila, Mexico, and one in Eagle Pass, Texas, US. The one in Eagle Pass is operated by NACCO Industries, thus for production data of the mine in Coahuila, production data for the whole Micare Unit minus the production of the Eagle Pass mine is taken.", "Reserves_data": [ { "id": 555, "year": 2018, "material": "F.stc", "commodity": NaN, "mineral_value_tonnes": 76000000.0, "commodity_value_tonnes": NaN, "grade_ppm": NaN, "source_id": "det_1371", "comment": NaN } ], "index_right": 40281, "ISO3_CODE": "USA", "COUNTRY_NAME": "United States", "AREA": 0.038539327884861668, "distance": 40509.810133167193 }, "geometry": { "type": "MultiPoint", "coordinates": [ [ -11207107.081547897309065, 3311323.480885231401771 ] ] } },
{ "type": "Feature", "properties": { "facility_id": "COM01200.00", "facility_name": "Sissingue", "facility_other_names": null, "facility_type": "Mine", "primary_commodity": "Gold", "commodities_products": "Gold", "facility_equipment": "Open pit, Carbon in Leach plant", "production_start": 2018.0, "production_end": null, "activity_status": null, "activity_status_year": null, "surface_area_sq_km": null, "concession_area_sq_km": null, "country": "Cote d'Ivoire", "GID_0": "CIV", "GID_1": "CIV.10_1", "GID_2": "CIV.10.1_1", "GID_3": "CIV.10.1.3_1", "GID_4": "CIV.10.1.3.1_1", "source_id": "det_1456", "comment": null, "Reserves_data": [ { "id": 871, "year": 2020, "material": "O.Au", "commodity": "Me.Au", "mineral_value_tonnes": 3600000.0, "commodity_value_tonnes": 6.917283612, "grade_ppm": 2.1, "source_id": "det_2853", "comment": NaN } ], "index_right": 5438, "ISO3_CODE": "MLI", "COUNTRY_NAME": "Mali", "AREA": 10.607997894206033, "distance": 40320.231119857199 }, "geometry": { "type": "MultiPoint", "coordinates": [ [ -688301.113128709956072, 1167737.891596523812041 ] ] } },
{ "type": "Feature", "properties": { "facility_id": "COM00256.00", "facility_name": "Chotia", "facility_other_names": null, "facility_type": "Mine", "primary_commodity": "Coal", "commodities_products": "Thermal coal", "facility_equipment": "Open pit", "production_start": 2006.0, "production_end": null, "activity_status": null, "activity_status_year": null, "surface_area_sq_km": null, "concession_area_sq_km": null, "country": "India", "GID_0": "IND", "GID_1": "IND.7_1", "GID_2": "IND.7.16_1", "GID_3": "IND.7.16.1_1", "GID_4": null, "source_id": "det_1307", "comment": null, "Reserves_data": [ { "id": 174, "year": 2019, "material": "F.stc", "commodity": NaN, "mineral_value_tonnes": 17200000.0, "commodity_value_tonnes": NaN, "grade_ppm": NaN, "source_id": "det_1307", "comment": NaN } ], "index_right": 6649, "ISO3_CODE": "IND", "COUNTRY_NAME": "India", "AREA": 10.294053587173554, "distance": 35003.123087785149 }, "geometry": { "type": "MultiPoint", "coordinates": [ [ 9180664.723254907876253, 2607465.74900760082528 ] ] } },
{ "type": "Feature", "properties": { "facility_id": "COM00607.00", "facility_name": "Juruti", "facility_other_names": null, "facility_type": "Mine", "primary_commodity": "Aluminium", "commodities_products": "Bauxite", "facility_equipment": "Open pit", "production_start": 2009.0, "production_end": null, "activity_status": null, "activity_status_year": null, "surface_area_sq_km": null, "concession_area_sq_km": null, "country": "Brazil", "GID_0": "BRA", "GID_1": "BRA.14_1", "GID_2": "BRA.14.62_1", "GID_3": "BRA.14.62.1_1", "GID_4": null, "source_id": "det_1270", "comment": null, "Reserves_data": [ { "id": 403, "year": 2019, "material": "O.Al", "commodity": "Me.Al2O3", "mineral_value_tonnes": 98900000.0, "commodity_value_tonnes": NaN, "grade_ppm": NaN, "source_id": "det_1270", "comment": "43.4 (probable) + 55.5 (proven)" }, { "id": 404, "year": 2019, "material": "O.Al", "commodity": "Nm.SiO2", "mineral_value_tonnes": 98900000.0, "commodity_value_tonnes": NaN, "grade_ppm": NaN, "source_id": "det_1270", "comment": "43.4 (probable) + 55.5 (proven)" } ], "index_right": 4545, "ISO3_CODE": "BRA", "COUNTRY_NAME": "Brazil", "AREA": 1.8490931020936574, "distance": 34019.142105009305 }, "geometry": { "type": "MultiPoint", "coordinates": [ [ -6244785.510015082545578, -241618.03565721240011 ] ] } },
{ "type": "Feature", "properties": { "facility_id": "COM01256.00", "facility_name": "Tanami", "facility_other_names": null, "facility_type": "Mine", "primary_commodity": "Gold", "commodities_products": "Gold", "facility_equipment": "Underground", "production_start": 1983.0, "production_end": null, "activity_status": null, "activity_status_year": null, "surface_area_sq_km": null, "concession_area_sq_km": null, "country": "Australia", "GID_0": "AUS", "GID_1": "AUS.6_1", "GID_2": "AUS.6.4_1", "GID_3": null, "GID_4": null, "source_id": "det_1005", "comment": null, "Reserves_data": [ { "id": 910, "year": 2017, "material": "O.Au", "commodity": "Me.Au", "mineral_value_tonnes": 26400000.0, "commodity_value_tonnes": 125.02139643, "grade_ppm": 4.706020839580001, "source_id": "det_2839", "comment": NaN } ], "index_right": 20390, "ISO3_CODE": "AUS", "COUNTRY_NAME": "Australia", "AREA": 0.15263931430771249, "distance": 32501.366730402697 }, "geometry": { "type": "MultiPoint", "coordinates": [ [ 14508755.834845498204231, -2337607.61720873368904 ] ] } },
{ "type": "Feature", "properties": { "facility_id": "COM01013.00", "facility_name": "Princeton", "facility_other_names": "Low Vol, Mid Vol, XMV Mine, Pocahontas", "facility_type": "Mine", "primary_commodity": "Coal", "commodities_products": "Coal, metallurgical coal, PCI", "facility_equipment": "Underground, Open pit", "production_start": null, "production_end": null, "activity_status": null, "activity_status_year": null, "surface_area_sq_km": null, "concession_area_sq_km": null, "country": "United States of America", "GID_0": "USA", "GID_1": "USA.49_1", "GID_2": "USA.49.28_1", "GID_3": null, "GID_4": null, "source_id": "det_1218", "comment": null, "Reserves_data": [ { "id": 721, "year": 2019, "material": "F.coal", "commodity": NaN, "mineral_value_tonnes": 52000000.0, "commodity_value_tonnes": NaN, "grade_ppm": NaN, "source_id": "det_1218", "comment": NaN } ], "index_right": 9107, "ISO3_CODE": "USA", "COUNTRY_NAME": "United States", "AREA": 1.3517215407738286, "distance": 29887.296672063898 }, "geometry": { "type": "MultiPoint", "coordinates": [ [ -9023542.996816975995898, 4480575.101513111963868 ] ] } },
{ "type": "Feature", "properties": { "facility_id": "COM01179.00", "facility_name": "Shilawusu", "facility_other_names": "Haosheng Company", "facility_type": "Mine", "primary_commodity": "Coal", "commodities_products": "Thermal coal", "facility_equipment": "Underground", "production_start": null, "production_end": null, "activity_status": null, "activity_status_year": null, "surface_area_sq_km": null, "concession_area_sq_km": null, "country": "China", "GID_0": "CHN", "GID_1": "CHN.19_1", "GID_2": "CHN.19.7_1", "GID_3": "CHN.19.7.3_1", "GID_4": null, "source_id": "det_1489", "comment": null, "Reserves_data": [ { "id": 852, "year": 2020, "material": "F.coal", "commodity": NaN, "mineral_value_tonnes": 509000000.0, "commodity_value_tonnes": NaN, "grade_ppm": NaN, "source_id": "det_1489", "comment": NaN } ], "index_right": 24349, "ISO3_CODE": "CHN", "COUNTRY_NAME": "China", "AREA": 0.15506641893675988, "distance": 26973.981055563479 }, "geometry": { "type": "MultiPoint", "coordinates": [ [ 12202771.499138943850994, 4724344.760418436489999 ] ] } },
{ "type": "Feature", "properties": { "facility_id": "COM00421.00", "facility_name": "Fortescue Pilbara Region", "facility_other_names": "Solomon Hub, Chichester Hub, Western Hub, Cloudbreak, Christmas Creek, Firetail, Kings Valley, Cloudbreak mine, Christmas Creek mine, Firetail mine, Kings Valley mine, Eliwana, Eliwana mine", "facility_type": "Region", "primary_commodity": "Iron", "commodities_products": "Iron ore", "facility_equipment": "Open pit", "production_start": 2008.0, "production_end": null, "activity_status": null, "activity_status_year": null, "surface_area_sq_km": null, "concession_area_sq_km": null, "country": "Australia", "GID_0": "AUS", "GID_1": "AUS.11_1", "GID_2": "AUS.11.3_1 ; AUS.11.46_1", "GID_3": null, "GID_4": null, "source_id": "det_1355", "comment": null, "Reserves_data": [ { "id": 287, "year": 2020, "material": "O.Fe", "commodity": "Me.Al2O3", "mineral_value_tonnes": 2246000000.0, "commodity_value_tonnes": NaN, "grade_ppm": NaN, "source_id": "det_1355", "comment": NaN }, { "id": 288, "year": 2020, "material": "O.Fe", "commodity": "Me.Fe", "mineral_value_tonnes": 2246000000.0, "commodity_value_tonnes": NaN, "grade_ppm": NaN, "source_id": "det_1355", "comment": NaN }, { "id": 289, "year": 2020, "material": "O.Fe", "commodity": "Nm.P", "mineral_value_tonnes": 2246000000.0, "commodity_value_tonnes": NaN, "grade_ppm": NaN, "source_id": "det_1355", "comment": NaN }, { "id": 290, "year": 2020, "material": "O.Fe", "commodity": "Nm.SiO2", "mineral_value_tonnes": 2246000000.0, "commodity_value_tonnes": NaN, "grade_ppm": NaN, "source_id": "det_1355", "comment": NaN } ], "index_right": 1802, "ISO3_CODE": "AUS", "COUNTRY_NAME": "Australia", "AREA": 1.4015871743774422, "distance": 25968.968600234064 }, "geometry": { "type": "MultiPoint", "coordinates": [ [ 13291211.471234986558557, -2550800.76216074405238 ] ] } },
{ "type": "Feature", "properties": { "facility_id": "COM00911.00", "facility_name": "Norte Abierto", "facility_other_names": "Cerro Casale, Caspiche", "facility_type": "Mine", "primary_commodity": "Other mine", "commodities_products": "Gold", "facility_equipment": null, "production_start": null, "production_end": null, "activity_status": "Project", "activity_status_year": 2019.0, "surface_area_sq_km": null, "concession_area_sq_km": null, "country": "Chile", "GID_0": "CHL", "GID_1": "CHL.5_1", "GID_2": "CHL.5.2_1", "GID_3": "CHL.5.2.3_1", "GID_4": null, "source_id": "det_1035", "comment": null, "Reserves_data": [ { "id": 643, "year": 2018, "material": "O.Au", "commodity": "Me.Ag", "mineral_value_tonnes": 1197602000.0, "commodity_value_tonnes": 1663.7201067780002, "grade_ppm": 1.52, "source_id": "det_1035", "comment": NaN }, { "id": 644, "year": 2018, "material": "O.Au", "commodity": "Me.Au", "mineral_value_tonnes": 1197602000.0, "commodity_value_tonnes": 659.013011658, "grade_ppm": 0.6, "source_id": "det_1035", "comment": NaN }, { "id": 645, "year": 2018, "material": "O.Au", "commodity": "Me.Cu", "mineral_value_tonnes": 598801000.0, "commodity_value_tonnes": NaN, "grade_ppm": NaN, "source_id": "det_1035", "comment": NaN } ], "index_right": 2090, "ISO3_CODE": "CHL", "COUNTRY_NAME": "Chile", "AREA": 4.206373036710942, "distance": 25565.924005834415 }, "geometry": { "type": "MultiPoint", "coordinates": [ [ -7716675.173282926902175, -3219834.05666054552421 ] ] } },
{ "type": "Feature", "properties": { "facility_id": "COM01042.00", "facility_name": "PT Mustika Indah Permai", "facility_other_names": "PT MIP, MIP,", "facility_type": "Mine", "primary_commodity": "Coal", "commodities_products": "Subbituminous coal", "facility_equipment": null, "production_start": null, "production_end": null, "activity_status": null, "activity_status_year": null, "surface_area_sq_km": null, "concession_area_sq_km": 20.0, "country": "Indonesia", "GID_0": "IDN", "GID_1": "IDN.31_1", "GID_2": "IDN.31.3_1", "GID_3": "IDN.31.3.1_1", "GID_4": "IDN.31.3.1.7_1", "source_id": "det_1508", "comment": null, "Reserves_data": [ { "id": 742, "year": 2019, "material": "F.coal", "commodity": NaN, "mineral_value_tonnes": 214000000.0, "commodity_value_tonnes": NaN, "grade_ppm": NaN, "source_id": "det_1508", "comment": NaN } ], "index_right": 4437, "ISO3_CODE": "IDN", "COUNTRY_NAME": "Indonesia", "AREA": 0.22115351438534642, "distance": 20119.913681822742 }, "geometry": { "type": "MultiPoint", "coordinates": [ [ 11511214.532142106443644, -423288.619216226623394 ] ] } },
{ "type": "Feature", "properties": { "facility_id": "COM01194.00", "facility_name": "Simandou", "facility_other_names": null, "facility_type": "Mine", "primary_commodity": "Other mine", "commodities_products": "Iron ore", "facility_equipment": "Open pit", "production_start": null, "production_end": null, "activity_status": null, "activity_status_year": null, "surface_area_sq_km": null, "concession_area_sq_km": null, "country": "Guinea", "GID_0": "GIN", "GID_1": "GIN.8_1", "GID_2": "GIN.8.4_1", "GID_3": "GIN.8.4.6_1", "GID_4": null, "source_id": "det_1079", "comment": null, "Reserves_data": [ { "id": 868, "year": 2017, "material": "O.Fe", "commodity": "Me.Fe", "mineral_value_tonnes": 6119866814.650389, "commodity_value_tonnes": NaN, "grade_ppm": NaN, "source_id": "det_1079", "comment": NaN } ], "index_right": 30301, "ISO3_CODE": "GIN", "COUNTRY_NAME": "Guinea", "AREA": 0.36393617081919566, "distance": 18077.999202329167 }, "geometry": { "type": "MultiPoint", "coordinates": [ [ -990684.891744079533964, 951641.608939344296232 ] ] } },
{ "type": "Feature", "properties": { "facility_id": "COM01276.00", "facility_name": "The Boliden Area", "facility_other_names": null, "facility_type": "Mine", "primary_commodity": "Zinc", "commodities_products": "Copper, Zinc, Lead, Silver, Gold, Tellurium", "facility_equipment": null, "production_start": null, "production_end": null, "activity_status": null, "activity_status_year": null, "surface_area_sq_km": null, "concession_area_sq_km": null, "country": "Sweden", "GID_0": "SWE", "GID_1": "SWE.18_1", "GID_2": "SWE.18.4_1 ; SWE.18.7_1 ; SWE.18.9_1", "GID_3": null, "GID_4": null, "source_id": "det_1124", "comment": null, "Reserves_data": [ { "id": 933, "year": 2018, "material": "O.bulk", "commodity": "Me.Ag", "mineral_value_tonnes": 12080000.0, "commodity_value_tonnes": NaN, "grade_ppm": NaN, "source_id": "det_1124", "comment": "proven ; probable " }, { "id": 934, "year": 2018, "material": "O.bulk", "commodity": "Me.Au", "mineral_value_tonnes": 12080000.0, "commodity_value_tonnes": NaN, "grade_ppm": NaN, "source_id": "det_1124", "comment": "proven ; probable " }, { "id": 935, "year": 2018, "material": "O.bulk", "commodity": "Me.Cu", "mineral_value_tonnes": 7880000.0, "commodity_value_tonnes": NaN, "grade_ppm": NaN, "source_id": "det_1124", "comment": "proven ; probable " }, { "id": 936, "year": 2018, "material": "O.bulk", "commodity": "Me.Pb", "mineral_value_tonnes": 7870000.0, "commodity_value_tonnes": NaN, "grade_ppm": NaN, "source_id": "det_1124", "comment": "probable ; proven " }, { "id": 937, "year": 2018, "material": "O.bulk", "commodity": "Me.Te", "mineral_value_tonnes": 4200000.0, "commodity_value_tonnes": NaN, "grade_ppm": NaN, "source_id": "det_1124", "comment": "proven ; probable" }, { "id": 938, "year": 2018, "material": "O.bulk", "commodity": "Me.Zn", "mineral_value_tonnes": 7880000.0, "commodity_value_tonnes": NaN, "grade_ppm": NaN, "source_id": "det_1124", "comment": "proven ; probable " } ], "index_right": 35036, "ISO3_CODE": "SWE", "COUNTRY_NAME": "Sweden", "AREA": 0.02637598419643546, "distance": 17929.860659205897 }, "geometry": { "type": "MultiPoint", "coordinates": [ [ 2236596.677836162038147, 9588255.772001706063747 ] ] } },
{ "type": "Feature", "properties": { "facility_id": "COM01022.00", "facility_name": "PT Barasentosa Lestari", "facility_other_names": "BSL", "facility_type": "Mine", "primary_commodity": "Coal", "commodities_products": "Thermal coal", "facility_equipment": "Open pit", "production_start": null, "production_end": null, "activity_status": null, "activity_status_year": null, "surface_area_sq_km": null, "concession_area_sq_km": 233.0, "country": "Indonesia", "GID_0": "IDN", "GID_1": "IDN.31_1", "GID_2": "IDN.31.7_1", "GID_3": "IDN.31.7.11_1", "GID_4": "IDN.31.7.11.3_1", "source_id": "det_1528", "comment": null, "Reserves_data": [ { "id": 728, "year": 2020, "material": "F.coal", "commodity": NaN, "mineral_value_tonnes": 189900000.0, "commodity_value_tonnes": NaN, "grade_ppm": NaN, "source_id": "det_1528", "comment": NaN } ], "index_right": 34335, "ISO3_CODE": "IDN", "COUNTRY_NAME": "Indonesia", "AREA": 0.54903803549683383, "distance": 17345.400112487292 }, "geometry": { "type": "MultiPoint", "coordinates": [ [ 11490821.016289310529828, -290518.546108865528367 ] ] } },
{ "type": "Feature", "properties": { "facility_id": "COM01364.00", "facility_name": "Western Range Project", "facility_other_names": "ArcelorMittal Liberia, AMLH", "facility_type": "Mine", "primary_commodity": "Iron", "commodities_products": "Iron", "facility_equipment": "Open pit", "production_start": 2011.0, "production_end": null, "activity_status": null, "activity_status_year": null, "surface_area_sq_km": null, "concession_area_sq_km": null, "country": "Liberia", "GID_0": "LBR", "GID_1": "LBR.12_1", "GID_2": "LBR.12.3_1", "GID_3": "LBR.12.3.6_1", "GID_4": null, "source_id": "det_1218", "comment": null, "Reserves_data": [ { "id": 991, "year": 2019, "material": "O.Fe", "commodity": "Me.Fe", "mineral_value_tonnes": 480000000.0, "commodity_value_tonnes": NaN, "grade_ppm": NaN, "source_id": "det_1218", "comment": NaN } ], "index_right": 5246, "ISO3_CODE": "LBR", "COUNTRY_NAME": "Liberia", "AREA": 2.2706309538974359, "distance": 16502.649384008524 }, "geometry": { "type": "MultiPoint", "coordinates": [ [ -950691.468418343109079, 844820.683563191210851 ] ] } },
{ "type": "Feature", "properties": { "facility_id": "COM00870.00", "facility_name": "Murowa", "facility_other_names": null, "facility_type": "Mine", "primary_commodity": "Other mine", "commodities_products": "Diamonds", "facility_equipment": null, "production_start": 2004.0, "production_end": null, "activity_status": null, "activity_status_year": null, "surface_area_sq_km": null, "concession_area_sq_km": null, "country": "Zimbabwe", "GID_0": "ZWE", "GID_1": "ZWE.10_1", "GID_2": "ZWE.10.8_1", "GID_3": null, "GID_4": null, "source_id": "det_1066", "comment": null, "Reserves_data": [ { "id": 608, "year": 2014, "material": "O.dig", "commodity": "Nm.dia", "mineral_value_tonnes": 4000000.0, "commodity_value_tonnes": NaN, "grade_ppm": NaN, "source_id": "det_1066", "comment": NaN } ], "index_right": 3269, "ISO3_CODE": "ZWE", "COUNTRY_NAME": "Zimbabwe", "AREA": 1.873932798843386, "distance": 16391.528328788347 }, "geometry": { "type": "MultiPoint", "coordinates": [ [ 3384552.98209927091375, -2332145.590981699991971 ] ] } },
{ "type": "Feature", "properties": { "facility_id": "COM00659.00", "facility_name": "Knott County mines", "facility_other_names": "Calvary", "facility_type": "Mine", "primary_commodity": "Coal", "commodities_products": "Coal", "facility_equipment": "Underground", "production_start": null, "production_end": null, "activity_status": null, "activity_status_year": null, "surface_area_sq_km": null, "concession_area_sq_km": null, "country": "United States of America", "GID_0": "USA", "GID_1": "USA.18_1", "GID_2": "USA.18.60_1", "GID_3": null, "GID_4": null, "source_id": "det_1405", "comment": null, "Reserves_data": [ { "id": 443, "year": 2010, "material": "F.coal", "commodity": NaN, "mineral_value_tonnes": 16420320.000000002, "commodity_value_tonnes": NaN, "grade_ppm": NaN, "source_id": "det_1406", "comment": NaN } ], "index_right": 9239, "ISO3_CODE": "USA", "COUNTRY_NAME": "United States", "AREA": 1.5564400817439474, "distance": 15305.927396163393 }, "geometry": { "type": "MultiPoint", "coordinates": [ [ -9217569.237667977809906, 4484014.138350716792047 ] ] } },
{ "type": "Feature", "properties": { "facility_id": "COM01065.00", "facility_name": "Raven", "facility_other_names": "Slones Branch, Lige Hollow", "facility_type": "Mine", "primary_commodity": "Coal", "commodities_products": "Coal", "facility_equipment": "Underground", "production_start": 2006.0, "production_end": null, "activity_status": null, "activity_status_year": null, "surface_area_sq_km": null, "concession_area_sq_km": null, "country": "United States of America", "GID_0": "USA", "GID_1": "USA.18_1", "GID_2": "USA.18.60_1", "GID_3": null, "GID_4": null, "source_id": "det_1407", "comment": null, "Reserves_data": [ { "id": 770, "year": 2010, "material": "F.coal", "commodity": NaN, "mineral_value_tonnes": 17690400.0, "commodity_value_tonnes": NaN, "grade_ppm": NaN, "source_id": "det_1406", "comment": NaN } ], "index_right": 40240, "ISO3_CODE": "USA", "COUNTRY_NAME": "United States", "AREA": 0.049110901324545965, "distance": 15208.960615155987 }, "geometry": { "type": "MultiPoint", "coordinates": [ [ -9219836.205076115205884, 4492786.506335818208754 ] ] } },
{ "type": "Feature", "properties": { "facility_id": "COM00867.00", "facility_name": "Mt Sterling", "facility_other_names": "East Kentucky, Peelpoplar", "facility_type": "Mine", "primary_commodity": "Coal", "commodities_products": "Coal", "facility_equipment": "Surface", "production_start": null, "production_end": 2012.0, "activity_status": null, "activity_status_year": null, "surface_area_sq_km": null, "concession_area_sq_km": null, "country": "United States of America", "GID_0": "USA", "GID_1": "USA.18_1", "GID_2": "USA.18.77_1", "GID_3": null, "GID_4": null, "source_id": "det_1408", "comment": null, "Reserves_data": [ { "id": 607, "year": 2010, "material": "F.coal", "commodity": NaN, "mineral_value_tonnes": 816480.0, "commodity_value_tonnes": NaN, "grade_ppm": NaN, "source_id": "det_1406", "comment": NaN } ], "index_right": 9475, "ISO3_CODE": "USA", "COUNTRY_NAME": "United States", "AREA": 0.68235212138327839, "distance": 14785.493396622624 }, "geometry": { "type": "MultiPoint", "coordinates": [ [ -9166116.042975701391697, 4544442.646753913722932 ] ] } },
{ "type": "Feature", "properties": { "facility_id": "COM00160.00", "facility_name": "Bosjesspruit", "facility_other_names": null, "facility_type": "Mine", "primary_commodity": "Coal", "commodities_products": "Coal", "facility_equipment": "Underground", "production_start": null, "production_end": null, "activity_status": null, "activity_status_year": null, "surface_area_sq_km": null, "concession_area_sq_km": null, "country": "South Africa", "GID_0": "ZAF", "GID_1": "ZAF.6_1", "GID_2": "ZAF.6.2_1", "GID_3": "ZAF.6.2.4_1", "GID_4": "ZAF.6.2.4.15_1", "source_id": "det_1581", "comment": "Part of Sasol Secunda Synfuels Complex", "Reserves_data": [ { "id": 89, "year": 2020, "material": "F.coal", "commodity": NaN, "mineral_value_tonnes": 97000000.0, "commodity_value_tonnes": NaN, "grade_ppm": NaN, "source_id": "det_1581", "comment": "64+33" } ], "index_right": 2545, "ISO3_CODE": "ZAF", "COUNTRY_NAME": "South Africa", "AREA": 78.495562288225187, "distance": 13629.910722189241 }, "geometry": { "type": "MultiPoint", "coordinates": [ [ 3247489.251961581408978, -3087412.295603295788169 ] ] } },
{ "type": "Feature", "properties": { "facility_id": "COM01178.00", "facility_name": "Shila-Paula", "facility_other_names": null, "facility_type": "Mine", "primary_commodity": "Gold", "commodities_products": "Gold, Silver", "facility_equipment": "Underground", "production_start": null, "production_end": null, "activity_status": null, "activity_status_year": null, "surface_area_sq_km": null, "concession_area_sq_km": null, "country": "Peru", "GID_0": "PER", "GID_1": "PER.4_1", "GID_2": "PER.4.4_1", "GID_3": "PER.4.4.4_1", "GID_4": null, "source_id": "det_1343", "comment": null, "Reserves_data": [ { "id": 850, "year": 2013, "material": "O.bulk", "commodity": "Me.Ag", "mineral_value_tonnes": 12313.0, "commodity_value_tonnes": NaN, "grade_ppm": NaN, "source_id": "det_1343", "comment": NaN }, { "id": 851, "year": 2013, "material": "O.bulk", "commodity": "Me.Au", "mineral_value_tonnes": 12313.0, "commodity_value_tonnes": NaN, "grade_ppm": NaN, "source_id": "det_1343", "comment": NaN } ], "index_right": 3510, "ISO3_CODE": "PER", "COUNTRY_NAME": "Peru", "AREA": 0.99142728455973272, "distance": 12937.850633776929 }, "geometry": { "type": "MultiPoint", "coordinates": [ [ -8028722.707383430562913, -1729246.242225822294131 ] ] } },
{ "type": "Feature", "properties": { "facility_id": "COM00975.00", "facility_name": "Peranap", "facility_other_names": "Pertambangan Peranap", "facility_type": "Mine", "primary_commodity": "Coal", "commodities_products": "Coal", "facility_equipment": "Open pit", "production_start": null, "production_end": null, "activity_status": null, "activity_status_year": null, "surface_area_sq_km": null, "concession_area_sq_km": 182.3, "country": "Indonesia", "GID_0": "IDN", "GID_1": "IDN.24_1", "GID_2": "IDN.24.4_1", "GID_3": "IDN.24.4.3_1", "GID_4": "IDN.24.4.3.4_1", "source_id": "det_1512", "comment": null, "Reserves_data": [ { "id": 691, "year": 2020, "material": "F.coal", "commodity": NaN, "mineral_value_tonnes": 280000000.0, "commodity_value_tonnes": NaN, "grade_ppm": NaN, "source_id": "det_1512", "comment": NaN } ], "index_right": 30708, "ISO3_CODE": "IDN", "COUNTRY_NAME": "Indonesia", "AREA": 0.41021499299797909, "distance": 12370.087196434724 }, "geometry": { "type": "MultiPoint", "coordinates": [ [ 11344789.824190896004438, -67644.65268728697265 ] ] } },
{ "type": "Feature", "properties": { "facility_id": "COM00380.00", "facility_name": "El Segundo/Lee Ranch", "facility_other_names": null, "facility_type": "Mine", "primary_commodity": "Coal", "commodities_products": "Thermal coal", "facility_equipment": "Surface", "production_start": null, "production_end": null, "activity_status": null, "activity_status_year": null, "surface_area_sq_km": null, "concession_area_sq_km": null, "country": "United States of America", "GID_0": "USA", "GID_1": "USA.32_1", "GID_2": "USA.32.4_1", "GID_3": null, "GID_4": null, "source_id": "det_1390", "comment": null, "Reserves_data": [ { "id": 265, "year": 2019, "material": "F.stc", "commodity": NaN, "mineral_value_tonnes": 30844800.0, "commodity_value_tonnes": NaN, "grade_ppm": NaN, "source_id": "det_2144", "comment": NaN } ], "index_right": 36702, "ISO3_CODE": "USA", "COUNTRY_NAME": "United States", "AREA": 2.067089975069643, "distance": 11771.361152210411 }, "geometry": { "type": "MultiPoint", "coordinates": [ [ -12005470.289111422374845, 4184020.171495378483087 ] ] } },
{ "type": "Feature", "properties": { "facility_id": "COM01244.00", "facility_name": "Sycamore and Imperial", "facility_other_names": "Wolf Run Mining Buckhannon Division, Buckhannon Division, Sycamore No.2, Buckhannon/Spruce Division", "facility_type": "Mine", "primary_commodity": "Coal", "commodities_products": "Coal, Metallurgical coal, Thermal coal", "facility_equipment": "Underground", "production_start": null, "production_end": null, "activity_status": null, "activity_status_year": null, "surface_area_sq_km": null, "concession_area_sq_km": null, "country": "United States of America", "GID_0": "USA", "GID_1": "USA.49_1", "GID_2": "USA.49.49_1", "GID_3": null, "GID_4": null, "source_id": "det_1405", "comment": null, "Reserves_data": [ { "id": 897, "year": 2013, "material": "F.coal", "commodity": NaN, "mineral_value_tonnes": 7076160.0, "commodity_value_tonnes": NaN, "grade_ppm": NaN, "source_id": "det_1403", "comment": NaN } ], "index_right": 9719, "ISO3_CODE": "USA", "COUNTRY_NAME": "United States", "AREA": 0.16035363047838375, "distance": 10096.297332572167 }, "geometry": { "type": "MultiPoint", "coordinates": [ [ -8930893.086379097774625, 4724000.324128212407231 ] ] } }
]
}
