{
"type": "FeatureCollection",
"name": "multi_match_facilities",
"crs": { "type": "name", "properties": { "name": "urn:ogc:def:crs:EPSG::3857" } },
"features": [
{ "type": "Feature", "properties": { "facility_id": "COM00056.00", "facility_name": "Araxa", "facility_other_names": null, "facility_type": "Mine, Refinery", "primary_commodity": "Other mine", "commodities_products": "Phosphate", "facility_equipment": "Open pit", "production_start": null, "production_end": null, "activity_status": null, "activity_status_year": null, "surface_area_sq_km": null, "concession_area_sq_km": null, "country": "Brazil", "GID_0": "BRA", "GID_1": "BRA.13_1", "GID_2": "BRA.13.804_1", "GID_3": "BRA.13.804.1_1", "GID_4": null, "source_id": "det_1161", "comment": null, "Reserves_data": [ { "year": 2013, "material": "O.P", "commodity": "Nm.PO", "mineral_value_tonnes": 132100000.0, "commodity_value_tonnes": NaN } ], "index_right": 3250.0, "ISO3_CODE": "BRA", "COUNTRY_NAME": "Brazil", "AREA": 24.835781487439188 }, "geometry": { "type": "MultiPoint", "coordinates": [ [ -5215377.727257572114468, -2254271.783757251687348 ] ] } },
{ "type": "Feature", "properties": { "facility_id": "COM00170.00", "facility_name": "Broadmeadow", "facility_other_names": null, "facility_type": "Mine", "primary_commodity": "Other mine", "commodities_products": "Metallurgical bituminous coal", "facility_equipment": "Underground", "production_start": 2005.0, "production_end": null, "activity_status": null, "activity_status_year": null, "surface_area_sq_km": null, "concession_area_sq_km": null, "country": "Australia", "GID_0": "AUS", "GID_1": "AUS.7_1", "GID_2": "AUS.7.34_1", "GID_3": null, "GID_4": null, "source_id": "det_1135", "comment": null, "Reserves_data": [ { "year": 2019, "material": "F.coc", "commodity": NaN, "mineral_value_tonnes": 181000000.0, "commodity_value_tonnes": NaN } ], "index_right": 739.0, "ISO3_CODE": "AUS", "COUNTRY_NAME": "Australia", "AREA": 109.7096161920182 }, "geometry": { "type": "MultiPoint", "coordinates": [ [ 16473167.112175844609737, -2490341.724285574629903 ] ] } },
{ "type": "Feature", "properties": { "facility_id": "COM00212.00", "facility_name": "Catalao", "facility_other_names": null, "facility_type": "Mine", "primary_commodity": "Other (poly)-metallic", "commodities_products": "Niobium", "facility_equipment": null, "production_start": null, "production_end": null, "activity_status": null, "activity_status_year": null, "surface_area_sq_km": null, "concession_area_sq_km": null, "country": "Brazil", "GID_0": "BRA", "GID_1": "BRA.9_1", "GID_2": "BRA.9.168_1", "GID_3": "BRA.9.168.1_1", "GID_4": null, "source_id": "det_1111", "comment": null, "Reserves_data": [ { "year": 2011, "material": NaN, "commodity": "Me.Nb", "mineral_value_tonnes": 4300000.0, "commodity_value_tonnes": NaN } ], "index_right": 44106.0, "ISO3_CODE": "BRA", "COUNTRY_NAME": "Brazil", "AREA": 24.423271330279633 }, "geometry": { "type": "MultiPoint", "coordinates": [ [ -5321135.041356137022376, -2054650.295276053482667 ] ] } },
{ "type": "Feature", "properties": { "facility_id": "COM00215.00", "facility_name": "Caval Ridge", "facility_other_names": null, "facility_type": "Mine", "primary_commodity": "Coal", "commodities_products": "Metallurgical bituminous coal", "facility_equipment": "Open pit", "production_start": 2014.0, "production_end": null, "activity_status": null, "activity_status_year": null, "surface_area_sq_km": null, "concession_area_sq_km": null, "country": "Australia", "GID_0": "AUS", "GID_1": "AUS.7_1", "GID_2": "AUS.7.34_1", "GID_3": null, "GID_4": null, "source_id": "det_1135", "comment": null, "Reserves_data": [ { "year": 2019, "material": "F.coc", "commodity": NaN, "mineral_value_tonnes": 347000000.0, "commodity_value_tonnes": NaN } ], "index_right": 703.0, "ISO3_CODE": "AUS", "COUNTRY_NAME": "Australia", "AREA": 201.66290407354705 }, "geometry": { "type": "MultiPoint", "coordinates": [ [ 16481789.3135502692312, -2530342.202524023596197 ] ] } },
{ "type": "Feature", "properties": { "facility_id": "COM00244.00", "facility_name": "Chapada", "facility_other_names": null, "facility_type": "Mine", "primary_commodity": "Copper", "commodities_products": "Copper, Gold, Silver", "facility_equipment": "Open pit", "production_start": 2006.0, "production_end": null, "activity_status": null, "activity_status_year": null, "surface_area_sq_km": null, "concession_area_sq_km": null, "country": "Brazil", "GID_0": "BRA", "GID_1": "BRA.9_1", "GID_2": "BRA.9.168_1", "GID_3": "BRA.9.168.1_1", "GID_4": null, "source_id": "det_1202", "comment": null, "Reserves_data": [ { "year": 2019, "material": "O.bulk", "commodity": "Me.Au", "mineral_value_tonnes": 803984000.0, "commodity_value_tonnes": 130.40780639800002 }, { "year": 2019, "material": "O.bulk", "commodity": "Me.Cu", "mineral_value_tonnes": 738789000.0, "commodity_value_tonnes": 1757000.0 } ], "index_right": 44106.0, "ISO3_CODE": "BRA", "COUNTRY_NAME": "Brazil", "AREA": 24.423271330279633 }, "geometry": { "type": "MultiPoint", "coordinates": [ [ -5323694.083636502735317, -2054460.853255782276392 ] ] } },
{ "type": "Feature", "properties": { "facility_id": "COM00265.00", "facility_name": "Coal Creek", "facility_other_names": null, "facility_type": "Mine", "primary_commodity": "Coal", "commodities_products": "Thermal coal", "facility_equipment": "Surface", "production_start": null, "production_end": null, "activity_status": null, "activity_status_year": null, "surface_area_sq_km": null, "concession_area_sq_km": null, "country": "United States of America", "GID_0": "USA", "GID_1": "USA.51_1", "GID_2": "USA.51.3_1", "GID_3": null, "GID_4": null, "source_id": "det_1399", "comment": null, "Reserves_data": [ { "year": 2019, "material": "F.stc", "commodity": NaN, "mineral_value_tonnes": 83643840.0, "commodity_value_tonnes": NaN } ], "index_right": 16643.0, "ISO3_CODE": "USA", "COUNTRY_NAME": "United States", "AREA": 86.752115058264351 }, "geometry": { "type": "MultiPoint", "coordinates": [ [ -11733599.666530422866344, 5480913.869188127107918 ] ] } },
{ "type": "Feature", "properties": { "facility_id": "COM00272.00", "facility_name": "Codelco Norte", "facility_other_names": null, "facility_type": "Mine", "primary_commodity": "Copper", "commodities_products": "Copper, Copper cathodes, Molybdenum, Gold, Silver", "facility_equipment": "Open pit", "production_start": 1997.0, "production_end": null, "activity_status": null, "activity_status_year": null, "surface_area_sq_km": null, "concession_area_sq_km": null, "country": "Chile", "GID_0": "CHL", "GID_1": "CHL.2_1", "GID_2": "CHL.2.2_1", "GID_3": "CHL.2.2.1_1", "GID_4": null, "source_id": "det_1171", "comment": null, "Reserves_data": [ { "year": 2018, "material": "O.Cu", "commodity": "Me.Cu", "mineral_value_tonnes": 3229000000.0, "commodity_value_tonnes": 19100000.0 } ], "index_right": 3633.0, "ISO3_CODE": "CHL", "COUNTRY_NAME": "Chile", "AREA": 178.48700007333392 }, "geometry": { "type": "MultiPoint", "coordinates": [ [ -7671687.99343426246196, -2548475.894975712057203 ] ] } },
{ "type": "Feature", "properties": { "facility_id": "COM00286.00", "facility_name": "Copebras", "facility_other_names": null, "facility_type": "Mine", "primary_commodity": "Other mine", "commodities_products": "Sodium tripolyphosphate, Phosphates", "facility_equipment": null, "production_start": null, "production_end": null, "activity_status": null, "activity_status_year": null, "surface_area_sq_km": null, "concession_area_sq_km": null, "country": "Brazil", "GID_0": "BRA", "GID_1": "BRA.9_1", "GID_2": "BRA.9.168_1", "GID_3": "BRA.9.168.1_1", "GID_4": null, "source_id": "det_1113", "comment": null, "Reserves_data": [ { "year": 2011, "material": "O.P", "commodity": "Nm.PO", "mineral_value_tonnes": 239200000.0, "commodity_value_tonnes": NaN } ], "index_right": 44106.0, "ISO3_CODE": "BRA", "COUNTRY_NAME": "Brazil", "AREA": 24.423271330279633 }, "geometry": { "type": "MultiPoint", "coordinates": [ [ -5323627.138522740453482, -2054556.827598191564903 ] ] } },
{ "type": "Feature", "properties": { "facility_id": "COM00292.00", "facility_name": "Cordero Rojo", "facility_other_names": null, "facility_type": "Mine", "primary_commodity": "Coal", "commodities_products": "Thermal coal", "facility_equipment": "Surface", "production_start": null, "production_end": null, "activity_status": null, "activity_status_year": null, "surface_area_sq_km": null, "concession_area_sq_km": null, "country": "United States of America", "GID_0": "USA", "GID_1": "USA.51_1", "GID_2": "USA.51.3_1", "GID_3": null, "GID_4": null, "source_id": "det_1077", "comment": null, "Reserves_data": [ { "year": 2018, "material": "F.coal", "commodity": NaN, "mineral_value_tonnes": 258824160.0, "commodity_value_tonnes": NaN } ], "index_right": 16643.0, "ISO3_CODE": "USA", "COUNTRY_NAME": "United States", "AREA": 86.752115058264351 }, "geometry": { "type": "MultiPoint", "coordinates": [ [ -11725434.172395266592503, 5470633.052502193488181 ] ] } },
{ "type": "Feature", "properties": { "facility_id": "COM00397.00", "facility_name": "Escondida", "facility_other_names": null, "facility_type": "Mine", "primary_commodity": "Copper", "commodities_products": "Copper, Copper cathode, Gold, Silver", "facility_equipment": "Open pit,  Oxide leaching, Sulphide leaching", "production_start": 1990.0, "production_end": null, "activity_status": null, "activity_status_year": null, "surface_area_sq_km": null, "concession_area_sq_km": null, "country": "Chile", "GID_0": "CHL", "GID_1": "CHL.2_1", "GID_2": "CHL.2.1_1", "GID_3": "CHL.2.1.1_1", "GID_4": null, "source_id": "det_1065", "comment": null, "Reserves_data": [ { "year": 2018, "material": "O.Cu", "commodity": "Me.Cu", "mineral_value_tonnes": 7539000000.0, "commodity_value_tonnes": NaN } ], "index_right": 2257.0, "ISO3_CODE": "CHL", "COUNTRY_NAME": "Chile", "AREA": 231.66445277227467 }, "geometry": { "type": "MultiPoint", "coordinates": [ [ -7689048.357637644745409, -2786435.908443457446992 ] ] } },
{ "type": "Feature", "properties": { "facility_id": "COM00489.00", "facility_name": "Goonyella Riverside", "facility_other_names": null, "facility_type": "Mine", "primary_commodity": "Coal", "commodities_products": "Metallurgical bituminous coal, Thermal bituminous coal", "facility_equipment": "Open pit", "production_start": 1971.0, "production_end": null, "activity_status": null, "activity_status_year": null, "surface_area_sq_km": null, "concession_area_sq_km": null, "country": "Australia", "GID_0": "AUS", "GID_1": "AUS.7_1", "GID_2": "AUS.7.34_1", "GID_3": null, "GID_4": null, "source_id": "det_1135", "comment": "Goonyella merged with Riverside Mine in 1989", "Reserves_data": [ { "year": 2019, "material": "F.coc", "commodity": NaN, "mineral_value_tonnes": 549000000.0, "commodity_value_tonnes": NaN } ], "index_right": 739.0, "ISO3_CODE": "AUS", "COUNTRY_NAME": "Australia", "AREA": 109.7096161920182 }, "geometry": { "type": "MultiPoint", "coordinates": [ [ 16471734.760251253843307, -2490103.689403414260596 ] ] } },
{ "type": "Feature", "properties": { "facility_id": "COM00545.00", "facility_name": "Hopkins Complex", "facility_other_names": "Hopkins County Coal, Elk Creek", "facility_type": "Mine", "primary_commodity": "Coal", "commodities_products": "Coal", "facility_equipment": "Underground", "production_start": null, "production_end": 2016.0, "activity_status": null, "activity_status_year": null, "surface_area_sq_km": null, "concession_area_sq_km": null, "country": "United States of America", "GID_0": "USA", "GID_1": "USA.6_1", "GID_2": "USA.6.27_1", "GID_3": null, "GID_4": null, "source_id": "det_1411", "comment": null, "Reserves_data": [ { "year": 2019, "material": "F.coal", "commodity": NaN, "mineral_value_tonnes": 12610080.0, "commodity_value_tonnes": NaN } ], "index_right": 13970.0, "ISO3_CODE": "USA", "COUNTRY_NAME": "United States", "AREA": 1.1181805037453967 }, "geometry": { "type": "MultiPoint", "coordinates": [ [ -11960941.729185931384563, 4711159.162245815619826 ] ] } },
{ "type": "Feature", "properties": { "facility_id": "COM00624.00", "facility_name": "Katanga Mining Complex", "facility_other_names": null, "facility_type": "Mine", "primary_commodity": "Copper", "commodities_products": "Copper, Cobalt", "facility_equipment": "Underground, Open pit", "production_start": null, "production_end": null, "activity_status": null, "activity_status_year": null, "surface_area_sq_km": null, "concession_area_sq_km": null, "country": "DR Congo", "GID_0": "COD", "GID_1": "COD.15_1", "GID_2": "COD.15.6_1", "GID_3": null, "GID_4": null, "source_id": "det_1177", "comment": "Website not available anymore (07/2020)", "Reserves_data": [ { "year": 2019, "material": "O.bulk", "commodity": "Me.Co", "mineral_value_tonnes": 124000000.0, "commodity_value_tonnes": NaN }, { "year": 2019, "material": "O.bulk", "commodity": "Me.Cu", "mineral_value_tonnes": 124000000.0, "commodity_value_tonnes": NaN } ], "index_right": 4126.0, "ISO3_CODE": "COD", "COUNTRY_NAME": "Democratic Republic of The Congo", "AREA": 66.377397143354386 }, "geometry": { "type": "MultiPoint", "coordinates": [ [ 2825918.019516889471561, -1200865.160757035715505 ] ] } },
{ "type": "Feature", "properties": { "facility_id": "COM00638.00", "facility_name": "Khumani", "facility_other_names": "Bruce 544, King 561, Mokaning 560, BKM Project,", "facility_type": "Mine", "primary_commodity": "Iron", "commodities_products": "Iron", "facility_equipment": "Open pit", "production_start": 2008.0, "production_end": null, "activity_status": null, "activity_status_year": null, "surface_area_sq_km": null, "concession_area_sq_km": null, "country": "South Africa", "GID_0": "ZAF", "GID_1": "ZAF.8_1", "GID_2": "ZAF.8.2_1", "GID_3": "ZAF.8.2.2_1", "GID_4": "ZAF.8.2.2.3_1", "source_id": "det_1264", "comment": null, "Reserves_data": [ { "year": 2019, "material": "O.Fe", "commodity": "Me.Fe", "mineral_value_tonnes": 439480000.0, "commodity_value_tonnes": NaN } ], "index_right": 2436.0, "ISO3_CODE": "ZAF", "COUNTRY_NAME": "South Africa", "AREA": 130.76512201879243 }, "geometry": { "type": "MultiPoint", "coordinates": [ [ 2561482.444613341242075, -3232256.37886075861752 ] ] } },
{ "type": "Feature", "properties": { "facility_id": "COM00662.00", "facility_name": "Kolwezi", "facility_other_names": "La Compagnie Minière de Musonoie Global SAS, Noyka", "facility_type": "Mine", "primary_commodity": "Copper", "commodities_products": "Copper", "facility_equipment": "Open Pit", "production_start": 2017.0, "production_end": null, "activity_status": null, "activity_status_year": null, "surface_area_sq_km": null, "concession_area_sq_km": 3.36, "country": "DR Congo", "GID_0": "COD", "GID_1": "COD.15_1", "GID_2": "COD.15.6_1", "GID_3": null, "GID_4": null, "source_id": "det_1323", "comment": null, "Reserves_data": [ { "year": 2018, "material": "O.Cu", "commodity": "Me.Cu", "mineral_value_tonnes": NaN, "commodity_value_tonnes": 639643.0 } ], "index_right": 4126.0, "ISO3_CODE": "COD", "COUNTRY_NAME": "Democratic Republic of The Congo", "AREA": 66.377397143354386 }, "geometry": { "type": "MultiPoint", "coordinates": [ [ 2827699.477203294634819, -1199347.645475587574765 ] ] } },
{ "type": "Feature", "properties": { "facility_id": "COM00676.00", "facility_name": "Krasnogorsky", "facility_other_names": null, "facility_type": "Mine", "primary_commodity": "Coal", "commodities_products": "Thermal coal, Anthracite", "facility_equipment": "Open pit", "production_start": 1954.0, "production_end": null, "activity_status": null, "activity_status_year": null, "surface_area_sq_km": null, "concession_area_sq_km": 25.2, "country": "Russian Federation", "GID_0": "RUS", "GID_1": "RUS.27_1", "GID_2": "RUS.27.20_1", "GID_3": "RUS.27.20.1_1", "GID_4": null, "source_id": "det_1561", "comment": "part of Southern Kuzbass Coal Company PJSC", "Reserves_data": [ { "year": 2020, "material": "F.coal", "commodity": NaN, "mineral_value_tonnes": 183961000.0, "commodity_value_tonnes": NaN } ], "index_right": 44513.0, "ISO3_CODE": "RUS", "COUNTRY_NAME": "Russian Federation", "AREA": 109.08952901160072 }, "geometry": { "type": "MultiPoint", "coordinates": [ [ 9791006.575526878237724, 7100083.870039079338312 ] ] } },
{ "type": "Feature", "properties": { "facility_id": "COM00824.00", "facility_name": "Ministro Hales", "facility_other_names": "División Ministro Hales", "facility_type": "Mine", "primary_commodity": "Copper", "commodities_products": "Copper, Silver, Calcine", "facility_equipment": "Open pit", "production_start": 2010.0, "production_end": null, "activity_status": null, "activity_status_year": null, "surface_area_sq_km": null, "concession_area_sq_km": null, "country": "Chile", "GID_0": "CHL", "GID_1": "CHL.2_1", "GID_2": "CHL.2.2_1", "GID_3": "CHL.2.2.1_1", "GID_4": null, "source_id": "det_1171", "comment": null, "Reserves_data": [ { "year": 2018, "material": "O.bulk", "commodity": "Me.Cu", "mineral_value_tonnes": 185000000.0, "commodity_value_tonnes": 1700000.0 } ], "index_right": 3633.0, "ISO3_CODE": "CHL", "COUNTRY_NAME": "Chile", "AREA": 178.48700007333392 }, "geometry": { "type": "MultiPoint", "coordinates": [ [ -7671074.723770382814109, -2557439.585305465385318 ] ] } },
{ "type": "Feature", "properties": { "facility_id": "COM00915.00", "facility_name": "North Goonyella", "facility_other_names": "Eaglefield, North Goonyella/Eaglefield", "facility_type": "Mine", "primary_commodity": "Coal", "commodities_products": "Coking coal", "facility_equipment": "Underground", "production_start": null, "production_end": null, "activity_status": null, "activity_status_year": null, "surface_area_sq_km": null, "concession_area_sq_km": null, "country": "Australia", "GID_0": "AUS", "GID_1": "AUS.7_1", "GID_2": "AUS.7.34_1", "GID_3": null, "GID_4": null, "source_id": "det_1390", "comment": null, "Reserves_data": [ { "year": 2019, "material": "F.coc", "commodity": NaN, "mineral_value_tonnes": 74390400.0, "commodity_value_tonnes": NaN } ], "index_right": 739.0, "ISO3_CODE": "AUS", "COUNTRY_NAME": "Australia", "AREA": 109.7096161920182 }, "geometry": { "type": "MultiPoint", "coordinates": [ [ 16470381.804203428328037, -2471885.489130832254887 ] ] } },
{ "type": "Feature", "properties": { "facility_id": "COM00969.00", "facility_name": "Peak Downs", "facility_other_names": null, "facility_type": "Mine", "primary_commodity": "Coal", "commodities_products": "Metallurgical bituminous coal", "facility_equipment": "Open pit", "production_start": 1972.0, "production_end": null, "activity_status": null, "activity_status_year": null, "surface_area_sq_km": null, "concession_area_sq_km": null, "country": "Australia", "GID_0": "AUS", "GID_1": "AUS.7_1", "GID_2": "AUS.7.34_1", "GID_3": null, "GID_4": null, "source_id": "det_1135", "comment": null, "Reserves_data": [ { "year": 2019, "material": "F.coal", "commodity": NaN, "mineral_value_tonnes": 718000000.0, "commodity_value_tonnes": NaN } ], "index_right": 703.0, "ISO3_CODE": "AUS", "COUNTRY_NAME": "Australia", "AREA": 201.66290407354705 }, "geometry": { "type": "MultiPoint", "coordinates": [ [ 16495283.95202998444438, -2542156.649474465753883 ] ] } },
{ "type": "Feature", "properties": { "facility_id": "COM01017.00", "facility_name": "PT Adimitra Baratama Nusantara", "facility_other_names": "ABN", "facility_type": "Mine", "primary_commodity": "Coal", "commodities_products": "Thermal coal", "facility_equipment": "Open pit", "production_start": 2008.0, "production_end": null, "activity_status": null, "activity_status_year": null, "surface_area_sq_km": null, "concession_area_sq_km": 29.9, "country": "Indonesia", "GID_0": "IDN", "GID_1": "IDN.15_1", "GID_2": "IDN.15.6_1", "GID_3": "IDN.15.6.13_1", "GID_4": "IDN.15.6.13.2_1", "source_id": "det_1537", "comment": null, "Reserves_data": [ { "year": 2019, "material": "F.coal", "commodity": NaN, "mineral_value_tonnes": 45000000.0, "commodity_value_tonnes": NaN } ], "index_right": 4693.0, "ISO3_CODE": "IDN", "COUNTRY_NAME": "Indonesia", "AREA": 31.540283546805227 }, "geometry": { "type": "MultiPoint", "coordinates": [ [ 13053319.508845347911119, -76831.902393012846005 ] ] } },
{ "type": "Feature", "properties": { "facility_id": "COM01031.00", "facility_name": "PT Indomining", "facility_other_names": "IM", "facility_type": "Mine", "primary_commodity": "Coal", "commodities_products": "Thermal coal", "facility_equipment": "Open pit", "production_start": 2007.0, "production_end": null, "activity_status": null, "activity_status_year": null, "surface_area_sq_km": null, "concession_area_sq_km": 6.83, "country": "Indonesia", "GID_0": "IDN", "GID_1": "IDN.15_1", "GID_2": "IDN.15.6_1", "GID_3": "IDN.15.6.13_1", "GID_4": "IDN.15.6.13.2_1", "source_id": "det_1537", "comment": null, "Reserves_data": [ { "year": 2019, "material": "F.coal", "commodity": NaN, "mineral_value_tonnes": 13100000.0, "commodity_value_tonnes": NaN } ], "index_right": 4693.0, "ISO3_CODE": "IDN", "COUNTRY_NAME": "Indonesia", "AREA": 31.540283546805227 }, "geometry": { "type": "MultiPoint", "coordinates": [ [ 13053575.573211241513491, -75331.306418853113428 ] ] } },
{ "type": "Feature", "properties": { "facility_id": "COM01134.00", "facility_name": "Saraji", "facility_other_names": null, "facility_type": "Mine", "primary_commodity": "Coal", "commodities_products": "Metallurgical bituminous coal", "facility_equipment": "Open pit", "production_start": 1974.0, "production_end": null, "activity_status": null, "activity_status_year": null, "surface_area_sq_km": null, "concession_area_sq_km": null, "country": "Australia", "GID_0": "AUS", "GID_1": "AUS.7_1", "GID_2": "AUS.7.34_1", "GID_3": null, "GID_4": null, "source_id": "det_1135", "comment": null, "Reserves_data": [ { "year": 2019, "material": "F.coc", "commodity": NaN, "mineral_value_tonnes": 502000000.0, "commodity_value_tonnes": NaN } ], "index_right": 703.0, "ISO3_CODE": "AUS", "COUNTRY_NAME": "Australia", "AREA": 201.66290407354705 }, "geometry": { "type": "MultiPoint", "coordinates": [ [ 16506516.244498314335942, -2562033.627425258979201 ] ] } },
{ "type": "Feature", "properties": { "facility_id": "COM01199.00", "facility_name": "Sishen", "facility_other_names": null, "facility_type": "Mine", "primary_commodity": "Iron", "commodities_products": "Iron ore", "facility_equipment": null, "production_start": null, "production_end": null, "activity_status": null, "activity_status_year": null, "surface_area_sq_km": null, "concession_area_sq_km": null, "country": "South Africa", "GID_0": "ZAF", "GID_1": "ZAF.8_1", "GID_2": "ZAF.8.2_1", "GID_3": "ZAF.8.2.2_1", "GID_4": "ZAF.8.2.2.3_1", "source_id": "det_1103", "comment": null, "Reserves_data": [ { "year": 2018, "material": "O.Fe", "commodity": "Me.Fe", "mineral_value_tonnes": 544600000.0, "commodity_value_tonnes": NaN } ], "index_right": 2436.0, "ISO3_CODE": "ZAF", "COUNTRY_NAME": "South Africa", "AREA": 130.76512201879243 }, "geometry": { "type": "MultiPoint", "coordinates": [ [ 2558668.354677781928331, -3221490.2523855981417 ] ] } },
{ "type": "Feature", "properties": { "facility_id": "COM01259.00", "facility_name": "Tapira", "facility_other_names": null, "facility_type": "Mine", "primary_commodity": "Other mine", "commodities_products": "Phosphate", "facility_equipment": "Open pit", "production_start": null, "production_end": null, "activity_status": null, "activity_status_year": null, "surface_area_sq_km": null, "concession_area_sq_km": null, "country": "Brazil", "GID_0": "BRA", "GID_1": "BRA.13_1", "GID_2": "BRA.13.804_1", "GID_3": "BRA.13.804.1_1", "GID_4": null, "source_id": "det_1161", "comment": null, "Reserves_data": [ { "year": 2013, "material": "O.P", "commodity": "Nm.PO", "mineral_value_tonnes": 680900000.0, "commodity_value_tonnes": NaN } ], "index_right": 3250.0, "ISO3_CODE": "BRA", "COUNTRY_NAME": "Brazil", "AREA": 24.835781487439188 }, "geometry": { "type": "MultiPoint", "coordinates": [ [ -5215606.238507038913667, -2254433.769161679316312 ] ] } },
{ "type": "Feature", "properties": { "facility_id": "COM01288.00", "facility_name": "Tomusinsky", "facility_other_names": null, "facility_type": "Mine", "primary_commodity": "Coal", "commodities_products": "Coking coal, Thermal coal", "facility_equipment": "Open pit", "production_start": 1959.0, "production_end": null, "activity_status": null, "activity_status_year": null, "surface_area_sq_km": null, "concession_area_sq_km": 6.7, "country": "Russian Federation", "GID_0": "RUS", "GID_1": "RUS.27_1", "GID_2": "RUS.27.20_1", "GID_3": "RUS.27.20.1_1", "GID_4": null, "source_id": "det_1561", "comment": "part of Southern Kuzbass Coal Company PJSC", "Reserves_data": [ { "year": 2020, "material": "F.coal", "commodity": NaN, "mineral_value_tonnes": 8603000.0, "commodity_value_tonnes": NaN } ], "index_right": 44513.0, "ISO3_CODE": "RUS", "COUNTRY_NAME": "Russian Federation", "AREA": 109.08952901160072 }, "geometry": { "type": "MultiPoint", "coordinates": [ [ 9781370.917815782129765, 7101424.858942104503512 ] ] } },
{ "type": "Feature", "properties": { "facility_id": "COM01360.00", "facility_name": "West Elk", "facility_other_names": null, "facility_type": "Mine", "primary_commodity": "Coal", "commodities_products": "Thermal coal", "facility_equipment": "Underground", "production_start": null, "production_end": null, "activity_status": null, "activity_status_year": null, "surface_area_sq_km": null, "concession_area_sq_km": null, "country": "United States of America", "GID_0": "USA", "GID_1": "USA.6_1", "GID_2": "USA.6.27_1", "GID_3": null, "GID_4": null, "source_id": "det_1399", "comment": null, "Reserves_data": [ { "year": 2019, "material": "F.stc", "commodity": NaN, "mineral_value_tonnes": 45813600.0, "commodity_value_tonnes": NaN } ], "index_right": 13970.0, "ISO3_CODE": "USA", "COUNTRY_NAME": "United States", "AREA": 1.1181805037453967 }, "geometry": { "type": "MultiPoint", "coordinates": [ [ -11960656.820540577173233, 4711418.337622111663222 ] ] } },
{ "type": "Feature", "properties": { "facility_id": "COM01410.00", "facility_name": "Zaldivar", "facility_other_names": null, "facility_type": "Mine", "primary_commodity": "Copper", "commodities_products": "Copper, Copper cathodes", "facility_equipment": null, "production_start": null, "production_end": null, "activity_status": null, "activity_status_year": null, "surface_area_sq_km": null, "concession_area_sq_km": null, "country": "Chile", "GID_0": "CHL", "GID_1": "CHL.2_1", "GID_2": "CHL.2.1_1", "GID_3": "CHL.2.1.1_1", "GID_4": null, "source_id": "det_1173", "comment": null, "Reserves_data": [ { "year": 2018, "material": "O.Cu", "commodity": "Me.Cu", "mineral_value_tonnes": 467484000.0, "commodity_value_tonnes": 2167173.625386 }, { "year": 2019, "material": "O.Cu", "commodity": "Me.Cu", "mineral_value_tonnes": 568500000.0, "commodity_value_tonnes": NaN } ], "index_right": 2257.0, "ISO3_CODE": "CHL", "COUNTRY_NAME": "Chile", "AREA": 231.66445277227467 }, "geometry": { "type": "MultiPoint", "coordinates": [ [ -7688242.89945603441447, -2777924.125226136762649 ] ] } }
]
}
