{
"type": "FeatureCollection",
"name": "unmatched_facilities",
"crs": { "type": "name", "properties": { "name": "urn:ogc:def:crs:EPSG::3857" } },
"features": [
{ "type": "Feature", "properties": { "facility_id": "COM00160.00", "facility_name": "Bosjesspruit", "facility_other_names": null, "facility_type": "Mine", "primary_commodity": "Coal", "commodities_products": "Coal", "facility_equipment": "Underground", "production_start": null, "production_end": null, "activity_status": null, "activity_status_year": null, "surface_area_sq_km": null, "concession_area_sq_km": null, "country": "South Africa", "GID_0": "ZAF", "GID_1": "ZAF.6_1", "GID_2": "ZAF.6.2_1", "GID_3": "ZAF.6.2.4_1", "GID_4": "ZAF.6.2.4.15_1", "source_id": "det_1581", "comment": "Part of Sasol Secunda Synfuels Complex", "Reserves_data": [ { "id": 89, "year": 2020, "material": "F.coal", "commodity": NaN, "mineral_value_tonnes": 97000000.0, "commodity_value_tonnes": NaN, "grade_ppm": NaN, "source_id": "det_1581", "comment": "64+33" } ] }, "geometry": { "type": "MultiPoint", "coordinates": [ [ 3247489.251961581408978, -3087412.295603295788169 ] ] } },
{ "type": "Feature", "properties": { "facility_id": "COM00256.00", "facility_name": "Chotia", "facility_other_names": null, "facility_type": "Mine", "primary_commodity": "Coal", "commodities_products": "Thermal coal", "facility_equipment": "Open pit", "production_start": 2006.0, "production_end": null, "activity_status": null, "activity_status_year": null, "surface_area_sq_km": null, "concession_area_sq_km": null, "country": "India", "GID_0": "IND", "GID_1": "IND.7_1", "GID_2": "IND.7.16_1", "GID_3": "IND.7.16.1_1", "GID_4": null, "source_id": "det_1307", "comment": null, "Reserves_data": [ { "id": 174, "year": 2019, "material": "F.stc", "commodity": NaN, "mineral_value_tonnes": 17200000.0, "commodity_value_tonnes": NaN, "grade_ppm": NaN, "source_id": "det_1307", "comment": NaN } ] }, "geometry": { "type": "MultiPoint", "coordinates": [ [ 9180664.723254907876253, 2607465.74900760082528 ] ] } },
{ "type": "Feature", "properties": { "facility_id": "COM00263.00", "facility_name": "Cliffs Logan County Coal", "facility_other_names": "CLCC", "facility_type": "Mine", "primary_commodity": "Coal", "commodities_products": "Metallurgical coal, Thermal coal", "facility_equipment": "Open pit, Underground", "production_start": null, "production_end": null, "activity_status": null, "activity_status_year": null, "surface_area_sq_km": null, "concession_area_sq_km": null, "country": "United States of America", "GID_0": "USA", "GID_1": "USA.49_1", "GID_2": "USA.49.3_1 ; USA.49.23_1 ; USA.49.55_1", "GID_3": null, "GID_4": null, "source_id": "det_1237", "comment": null, "Reserves_data": [ { "id": 184, "year": 2019, "material": "F.coal", "commodity": NaN, "mineral_value_tonnes": 86000000.0, "commodity_value_tonnes": NaN, "grade_ppm": NaN, "source_id": "det_1426", "comment": "4.5% - 6.0% moisture basis" } ] }, "geometry": { "type": "MultiPoint", "coordinates": [ [ -9091967.049760153517127, 4551231.180834898725152 ] ] } },
{ "type": "Feature", "properties": { "facility_id": "COM00307.00", "facility_name": "Cumberland River", "facility_other_names": null, "facility_type": "Mine", "primary_commodity": "Coal", "commodities_products": "Metallurgical coa, Thermal coal", "facility_equipment": "Underground, Surface", "production_start": null, "production_end": 2014.0, "activity_status": null, "activity_status_year": null, "surface_area_sq_km": null, "concession_area_sq_km": 134.76177, "country": "United States of America", "GID_0": "USA", "GID_1": "USA.47_1", "GID_2": "USA.47.131_1", "GID_3": null, "GID_4": null, "source_id": "det_1403", "comment": null, "Reserves_data": [ { "id": 217, "year": 2013, "material": "F.coal", "commodity": NaN, "mineral_value_tonnes": 17781120.0, "commodity_value_tonnes": NaN, "grade_ppm": NaN, "source_id": "det_1403", "comment": NaN } ] }, "geometry": { "type": "MultiPoint", "coordinates": [ [ -9210790.624449381604791, 4434942.291616314090788 ] ] } },
{ "type": "Feature", "properties": { "facility_id": "COM00314.00", "facility_name": "Darling Range Mines", "facility_other_names": "ML1SA, Darling Range Mines ML1SA", "facility_type": "Mine", "primary_commodity": "Aluminium", "commodities_products": "Bauxite", "facility_equipment": "Open pit", "production_start": 1963.0, "production_end": null, "activity_status": null, "activity_status_year": null, "surface_area_sq_km": null, "concession_area_sq_km": 7128.81, "country": "Australia", "GID_0": "AUS", "GID_1": "AUS.11_1", "GID_2": "AUS.11.128_1", "GID_3": null, "GID_4": null, "source_id": "det_1269", "comment": null, "Reserves_data": [ { "id": 219, "year": 2019, "material": "O.Al", "commodity": "Me.Al2O3", "mineral_value_tonnes": 128200000.0, "commodity_value_tonnes": NaN, "grade_ppm": NaN, "source_id": "det_1270", "comment": "56.6 (probable) + 71.6 (proven)" }, { "id": 220, "year": 2019, "material": "O.Al", "commodity": "Nm.SiO2", "mineral_value_tonnes": 128200000.0, "commodity_value_tonnes": NaN, "grade_ppm": NaN, "source_id": "det_1270", "comment": "56.6 (probable) + 71.6 (proven)" } ] }, "geometry": { "type": "MultiPoint", "coordinates": [ [ 12916544.759242450818419, -3884362.349040017463267 ] ] } },
{ "type": "Feature", "properties": { "facility_id": "COM00380.00", "facility_name": "El Segundo/Lee Ranch", "facility_other_names": null, "facility_type": "Mine", "primary_commodity": "Coal", "commodities_products": "Thermal coal", "facility_equipment": "Surface", "production_start": null, "production_end": null, "activity_status": null, "activity_status_year": null, "surface_area_sq_km": null, "concession_area_sq_km": null, "country": "United States of America", "GID_0": "USA", "GID_1": "USA.32_1", "GID_2": "USA.32.4_1", "GID_3": null, "GID_4": null, "source_id": "det_1390", "comment": null, "Reserves_data": [ { "id": 265, "year": 2019, "material": "F.stc", "commodity": NaN, "mineral_value_tonnes": 30844800.0, "commodity_value_tonnes": NaN, "grade_ppm": NaN, "source_id": "det_2144", "comment": NaN } ] }, "geometry": { "type": "MultiPoint", "coordinates": [ [ -12005470.289111422374845, 4184020.171495378483087 ] ] } },
{ "type": "Feature", "properties": { "facility_id": "COM00394.00", "facility_name": "Ergo", "facility_other_names": null, "facility_type": "Mine", "primary_commodity": "Gold", "commodities_products": "Gold", "facility_equipment": null, "production_start": null, "production_end": null, "activity_status": null, "activity_status_year": null, "surface_area_sq_km": null, "concession_area_sq_km": null, "country": "South Africa", "GID_0": "ZAF", "GID_1": "ZAF.3_1", "GID_2": "ZAF.3.3_1", "GID_3": "ZAF.3.3.1_1", "GID_4": "ZAF.3.3.1.74_1", "source_id": "det_1062", "comment": null, "Reserves_data": [ { "id": 270, "year": 2002, "material": "O.Au", "commodity": "Me.Au", "mineral_value_tonnes": 65700000.0, "commodity_value_tonnes": 22.679618504000004, "grade_ppm": 0.37, "source_id": "det_2854", "comment": NaN } ] }, "geometry": { "type": "MultiPoint", "coordinates": [ [ 3158620.386584090534598, -3033363.911060716491193 ] ] } },
{ "type": "Feature", "properties": { "facility_id": "COM00416.00", "facility_name": "Flint Ridge", "facility_other_names": null, "facility_type": "Mine", "primary_commodity": "Coal", "commodities_products": "Coal", "facility_equipment": "Underground", "production_start": null, "production_end": 2012.0, "activity_status": null, "activity_status_year": null, "surface_area_sq_km": null, "concession_area_sq_km": null, "country": "United States of America", "GID_0": "USA", "GID_1": "USA.18_1", "GID_2": "USA.18.13_1", "GID_3": null, "GID_4": null, "source_id": "det_1407", "comment": null, "Reserves_data": [ { "id": 283, "year": 2010, "material": "F.coal", "commodity": NaN, "mineral_value_tonnes": 18416160.0, "commodity_value_tonnes": NaN, "grade_ppm": NaN, "source_id": "det_1406", "comment": NaN } ] }, "geometry": { "type": "MultiPoint", "coordinates": [ [ -9265838.043194524943829, 4506558.737781771458685 ] ] } },
{ "type": "Feature", "properties": { "facility_id": "COM00421.00", "facility_name": "Fortescue Pilbara Region", "facility_other_names": "Solomon Hub, Chichester Hub, Western Hub, Cloudbreak, Christmas Creek, Firetail, Kings Valley, Cloudbreak mine, Christmas Creek mine, Firetail mine, Kings Valley mine, Eliwana, Eliwana mine", "facility_type": "Region", "primary_commodity": "Iron", "commodities_products": "Iron ore", "facility_equipment": "Open pit", "production_start": 2008.0, "production_end": null, "activity_status": null, "activity_status_year": null, "surface_area_sq_km": null, "concession_area_sq_km": null, "country": "Australia", "GID_0": "AUS", "GID_1": "AUS.11_1", "GID_2": "AUS.11.3_1 ; AUS.11.46_1", "GID_3": null, "GID_4": null, "source_id": "det_1355", "comment": null, "Reserves_data": [ { "id": 287, "year": 2020, "material": "O.Fe", "commodity": "Me.Al2O3", "mineral_value_tonnes": 2246000000.0, "commodity_value_tonnes": NaN, "grade_ppm": NaN, "source_id": "det_1355", "comment": NaN }, { "id": 288, "year": 2020, "material": "O.Fe", "commodity": "Me.Fe", "mineral_value_tonnes": 2246000000.0, "commodity_value_tonnes": NaN, "grade_ppm": NaN, "source_id": "det_1355", "comment": NaN }, { "id": 289, "year": 2020, "material": "O.Fe", "commodity": "Nm.P", "mineral_value_tonnes": 2246000000.0, "commodity_value_tonnes": NaN, "grade_ppm": NaN, "source_id": "det_1355", "comment": NaN }, { "id": 290, "year": 2020, "material": "O.Fe", "commodity": "Nm.SiO2", "mineral_value_tonnes": 2246000000.0, "commodity_value_tonnes": NaN, "grade_ppm": NaN, "source_id": "det_1355", "comment": NaN } ] }, "geometry": { "type": "MultiPoint", "coordinates": [ [ 13291211.471234986558557, -2550800.76216074405238 ] ] } },
{ "type": "Feature", "properties": { "facility_id": "COM00432.00", "facility_name": "Fruta del Norte", "facility_other_names": null, "facility_type": "Mine", "primary_commodity": "Other mine", "commodities_products": "Gold", "facility_equipment": null, "production_start": null, "production_end": null, "activity_status": null, "activity_status_year": null, "surface_area_sq_km": null, "concession_area_sq_km": null, "country": "Ecuador", "GID_0": "ECU", "GID_1": "ECU.24_1", "GID_2": "ECU.24.8_1", "GID_3": "ECU.24.8.2_1", "GID_4": null, "source_id": "det_1055", "comment": null, "Reserves_data": [ { "id": 298, "year": 2012, "material": "O.Au", "commodity": "Me.Au", "mineral_value_tonnes": 50880000.0, "commodity_value_tonnes": 445.626152037, "grade_ppm": 6.26, "source_id": "det_2857", "comment": NaN } ] }, "geometry": { "type": "MultiPoint", "coordinates": [ [ -8750154.951799605041742, -427139.737835500622168 ] ] } },
{ "type": "Feature", "properties": { "facility_id": "COM00490.00", "facility_name": "Gosowong", "facility_other_names": "Toguraci", "facility_type": "Mine", "primary_commodity": "Gold", "commodities_products": "Gold, Silver", "facility_equipment": "Underground, Open pit", "production_start": null, "production_end": null, "activity_status": null, "activity_status_year": null, "surface_area_sq_km": null, "concession_area_sq_km": null, "country": "Indonesia", "GID_0": "IDN", "GID_1": "IDN.18_1", "GID_2": "IDN.18.5_1", "GID_3": "IDN.18.5.5_1", "GID_4": "IDN.18.5.5.1_1", "source_id": "det_1096", "comment": null, "Reserves_data": [ { "id": 323, "year": 2018, "material": "O.Au", "commodity": "Me.Ag", "mineral_value_tonnes": 1400000.0, "commodity_value_tonnes": 15.308742490200002, "grade_ppm": 12.0, "source_id": "det_2841", "comment": NaN }, { "id": 324, "year": 2018, "material": "O.Au", "commodity": "Me.Au", "mineral_value_tonnes": 1400000.0, "commodity_value_tonnes": 10.4893235581, "grade_ppm": 8.1, "source_id": "det_2841", "comment": NaN } ] }, "geometry": { "type": "MultiPoint", "coordinates": [ [ 14227607.117390975356102, 174904.759274053241825 ] ] } },
{ "type": "Feature", "properties": { "facility_id": "COM00512.00", "facility_name": "Gunnedah", "facility_other_names": null, "facility_type": "Mine, Refinery", "primary_commodity": "Coal", "commodities_products": "Coal", "facility_equipment": "Open cut", "production_start": 2002.0, "production_end": null, "activity_status": "active", "activity_status_year": 2020.0, "surface_area_sq_km": null, "concession_area_sq_km": null, "country": "Australia", "GID_0": "AUS", "GID_1": "AUS.5_1", "GID_2": "AUS.5.59_1 ; AUS.5.97_1", "GID_3": null, "GID_4": null, "source_id": "det_1541", "comment": null, "Reserves_data": [ { "id": 338, "year": 2020, "material": "F.coal", "commodity": NaN, "mineral_value_tonnes": 35000000.0, "commodity_value_tonnes": NaN, "grade_ppm": NaN, "source_id": "det_1542", "comment": NaN } ] }, "geometry": { "type": "MultiPoint", "coordinates": [ [ 16719549.544175578281283, -3585001.620387968607247 ] ] } },
{ "type": "Feature", "properties": { "facility_id": "COM00514.00", "facility_name": "Guston Run", "facility_other_names": "Patriot Mining Company", "facility_type": "Mine", "primary_commodity": "Coal", "commodities_products": "Coal", "facility_equipment": "Surface", "production_start": null, "production_end": 2012.0, "activity_status": null, "activity_status_year": null, "surface_area_sq_km": null, "concession_area_sq_km": null, "country": "United States of America", "GID_0": "USA", "GID_1": "USA.49_1", "GID_2": "USA.49.31_1", "GID_3": null, "GID_4": null, "source_id": "det_1405", "comment": null, "Reserves_data": [ { "id": 340, "year": 2010, "material": "F.coal", "commodity": NaN, "mineral_value_tonnes": 7892639.999999999, "commodity_value_tonnes": NaN, "grade_ppm": NaN, "source_id": "det_1406", "comment": NaN } ] }, "geometry": { "type": "MultiPoint", "coordinates": [ [ -8912239.070286270231009, 4820948.109765311703086 ] ] } },
{ "type": "Feature", "properties": { "facility_id": "COM00554.00", "facility_name": "Illawarra", "facility_other_names": null, "facility_type": "Mine", "primary_commodity": "Coal", "commodities_products": "Thermal coal, Metallurgical coal", "facility_equipment": null, "production_start": null, "production_end": null, "activity_status": null, "activity_status_year": null, "surface_area_sq_km": null, "concession_area_sq_km": null, "country": "Australia", "GID_0": "AUS", "GID_1": "AUS.5_1", "GID_2": "AUS.5.149_1", "GID_3": null, "GID_4": null, "source_id": "det_1136", "comment": null, "Reserves_data": [ { "id": 372, "year": 2019, "material": "F.coal", "commodity": NaN, "mineral_value_tonnes": 16000000.0, "commodity_value_tonnes": NaN, "grade_ppm": NaN, "source_id": "det_1147", "comment": NaN }, { "id": 373, "year": 2019, "material": "F.stc", "commodity": NaN, "mineral_value_tonnes": 114000000.0, "commodity_value_tonnes": NaN, "grade_ppm": NaN, "source_id": "det_1147", "comment": NaN } ] }, "geometry": { "type": "MultiPoint", "coordinates": [ [ 16780489.294564947485924, -4092549.561838857363909 ] ] } },
{ "type": "Feature", "properties": { "facility_id": "COM00585.00", "facility_name": "Itmann No. 5 Mine", "facility_other_names": null, "facility_type": "Mine", "primary_commodity": "Other mine", "commodities_products": "Metallurgical coal", "facility_equipment": "Underground", "production_start": null, "production_end": null, "activity_status": "in development", "activity_status_year": 2019.0, "surface_area_sq_km": null, "concession_area_sq_km": null, "country": "United States of America", "GID_0": "USA", "GID_1": "USA.49_1", "GID_2": "USA.49.55_1", "GID_3": null, "GID_4": null, "source_id": "det_1415", "comment": null, "Reserves_data": [ { "id": 385, "year": 2019, "material": "F.coc", "commodity": NaN, "mineral_value_tonnes": 18688320.0, "commodity_value_tonnes": NaN, "grade_ppm": NaN, "source_id": "det_1415", "comment": NaN } ] }, "geometry": { "type": "MultiPoint", "coordinates": [ [ -9063368.345765341073275, 4519361.705306393094361 ] ] } },
{ "type": "Feature", "properties": { "facility_id": "COM00607.00", "facility_name": "Juruti", "facility_other_names": null, "facility_type": "Mine", "primary_commodity": "Aluminium", "commodities_products": "Bauxite", "facility_equipment": "Open pit", "production_start": 2009.0, "production_end": null, "activity_status": null, "activity_status_year": null, "surface_area_sq_km": null, "concession_area_sq_km": null, "country": "Brazil", "GID_0": "BRA", "GID_1": "BRA.14_1", "GID_2": "BRA.14.62_1", "GID_3": "BRA.14.62.1_1", "GID_4": null, "source_id": "det_1270", "comment": null, "Reserves_data": [ { "id": 403, "year": 2019, "material": "O.Al", "commodity": "Me.Al2O3", "mineral_value_tonnes": 98900000.0, "commodity_value_tonnes": NaN, "grade_ppm": NaN, "source_id": "det_1270", "comment": "43.4 (probable) + 55.5 (proven)" }, { "id": 404, "year": 2019, "material": "O.Al", "commodity": "Nm.SiO2", "mineral_value_tonnes": 98900000.0, "commodity_value_tonnes": NaN, "grade_ppm": NaN, "source_id": "det_1270", "comment": "43.4 (probable) + 55.5 (proven)" } ] }, "geometry": { "type": "MultiPoint", "coordinates": [ [ -6244785.510015082545578, -241618.03565721240011 ] ] } },
{ "type": "Feature", "properties": { "facility_id": "COM00639.00", "facility_name": "Khutala", "facility_other_names": null, "facility_type": "Mine", "primary_commodity": "Coal", "commodities_products": "Thermal coal", "facility_equipment": null, "production_start": null, "production_end": null, "activity_status": null, "activity_status_year": null, "surface_area_sq_km": null, "concession_area_sq_km": null, "country": "South Africa", "GID_0": "ZAF", "GID_1": "ZAF.6_1", "GID_2": "ZAF.6.3_1", "GID_3": "ZAF.6.3.3_1", "GID_4": "ZAF.6.3.3.24_1", "source_id": "det_1136", "comment": null, "Reserves_data": [ { "id": 432, "year": 2019, "material": "F.stc", "commodity": NaN, "mineral_value_tonnes": 47200000.0, "commodity_value_tonnes": NaN, "grade_ppm": NaN, "source_id": "det_1147", "comment": NaN } ] }, "geometry": { "type": "MultiPoint", "coordinates": [ [ 3228710.833794629666954, -3014423.192469747271389 ] ] } },
{ "type": "Feature", "properties": { "facility_id": "COM00659.00", "facility_name": "Knott County mines", "facility_other_names": "Calvary", "facility_type": "Mine", "primary_commodity": "Coal", "commodities_products": "Coal", "facility_equipment": "Underground", "production_start": null, "production_end": null, "activity_status": null, "activity_status_year": null, "surface_area_sq_km": null, "concession_area_sq_km": null, "country": "United States of America", "GID_0": "USA", "GID_1": "USA.18_1", "GID_2": "USA.18.60_1", "GID_3": null, "GID_4": null, "source_id": "det_1405", "comment": null, "Reserves_data": [ { "id": 443, "year": 2010, "material": "F.coal", "commodity": NaN, "mineral_value_tonnes": 16420320.000000002, "commodity_value_tonnes": NaN, "grade_ppm": NaN, "source_id": "det_1406", "comment": NaN } ] }, "geometry": { "type": "MultiPoint", "coordinates": [ [ -9217569.237667977809906, 4484014.138350716792047 ] ] } },
{ "type": "Feature", "properties": { "facility_id": "COM00664.00", "facility_name": "Koniambo", "facility_other_names": null, "facility_type": "Mine", "primary_commodity": "Nickel", "commodities_products": "Nickel", "facility_equipment": null, "production_start": null, "production_end": null, "activity_status": null, "activity_status_year": null, "surface_area_sq_km": null, "concession_area_sq_km": null, "country": "New Caledonia", "GID_0": "NCL", "GID_1": "NCL.2_1", "GID_2": "NCL.2.18_1", "GID_3": null, "GID_4": null, "source_id": "det_1178", "comment": null, "Reserves_data": [ { "id": 446, "year": 2019, "material": "O.Ni", "commodity": "Me.Ni", "mineral_value_tonnes": 41800000.0, "commodity_value_tonnes": NaN, "grade_ppm": NaN, "source_id": "det_2855", "comment": NaN } ] }, "geometry": { "type": "MultiPoint", "coordinates": [ [ 18337503.470338676124811, -2392672.42946729529649 ] ] } },
{ "type": "Feature", "properties": { "facility_id": "COM00681.00", "facility_name": "Kryvyi Rih", "facility_other_names": "AMKR, Kirova, Kryvorizhstal, PJSC ArcelorMittal Kryvyi Rih, AM Kryvyi Rih", "facility_type": "Mine, Refinery, Smelter", "primary_commodity": "Iron", "commodities_products": "Iron, Steel, steel billets, rebars, wire rods, steel angles, merchant steel bar", "facility_equipment": "Open pit, Underground, coke oven batteries, sintering plant, blast furnaces, basic oxygen converters, twin open hearth furnace, continuous billet caster, blooming mill, light section bar mill, wire rod mill", "production_start": 1933.0, "production_end": null, "activity_status": null, "activity_status_year": null, "surface_area_sq_km": null, "concession_area_sq_km": null, "country": "Ukraine", "GID_0": "UKR", "GID_1": "UKR.5_1", "GID_2": "UKR.5.8_1", "GID_3": null, "GID_4": null, "source_id": "det_1219", "comment": null, "Reserves_data": [ { "id": 458, "year": 2019, "material": "O.Fe", "commodity": "Me.Fe", "mineral_value_tonnes": 636000000.0, "commodity_value_tonnes": NaN, "grade_ppm": NaN, "source_id": "det_1218", "comment": NaN } ] }, "geometry": { "type": "MultiPoint", "coordinates": [ [ 3717546.731683698948473, 6087632.390536221675575 ] ] } },
{ "type": "Feature", "properties": { "facility_id": "COM00712.00", "facility_name": "Lawlers", "facility_other_names": null, "facility_type": "Mine", "primary_commodity": "Gold", "commodities_products": "Gold", "facility_equipment": null, "production_start": null, "production_end": null, "activity_status": null, "activity_status_year": null, "surface_area_sq_km": null, "concession_area_sq_km": null, "country": "Australia", "GID_0": "AUS", "GID_1": "AUS.11_1", "GID_2": "AUS.11.72_1", "GID_3": null, "GID_4": null, "source_id": "det_1040", "comment": null, "Reserves_data": [ { "id": 496, "year": 2012, "material": "O.Au", "commodity": "Me.Au", "mineral_value_tonnes": 2963000.0, "commodity_value_tonnes": 10.971265401, "grade_ppm": 3.71378753003, "source_id": "det_2708", "comment": NaN } ] }, "geometry": { "type": "MultiPoint", "coordinates": [ [ 13415201.281653685495257, -3258957.980792326852679 ] ] } },
{ "type": "Feature", "properties": { "facility_id": "COM00715.00", "facility_name": "Leer", "facility_other_names": "Tygart Valley", "facility_type": "Mine", "primary_commodity": "Coal", "commodities_products": "Metallurgical coal", "facility_equipment": "Underground", "production_start": 2013.0, "production_end": null, "activity_status": null, "activity_status_year": null, "surface_area_sq_km": null, "concession_area_sq_km": null, "country": "United States of America", "GID_0": "USA", "GID_1": "USA.49_1", "GID_2": "USA.49.46_1", "GID_3": null, "GID_4": null, "source_id": "det_1401", "comment": null, "Reserves_data": [ { "id": 497, "year": 2019, "material": "F.coc", "commodity": NaN, "mineral_value_tonnes": 43817760.0, "commodity_value_tonnes": NaN, "grade_ppm": NaN, "source_id": "det_1399", "comment": NaN } ] }, "geometry": { "type": "MultiPoint", "coordinates": [ [ -8900025.62242846749723, 4771449.343687061220407 ] ] } },
{ "type": "Feature", "properties": { "facility_id": "COM00784.00", "facility_name": "MC Mining Complex", "facility_other_names": "Excel Mining, Excel Mine No. 5, Excel Mining, Pontiki Coal", "facility_type": "Mine", "primary_commodity": "Coal", "commodities_products": "Coal", "facility_equipment": "Underground", "production_start": null, "production_end": null, "activity_status": null, "activity_status_year": null, "surface_area_sq_km": null, "concession_area_sq_km": null, "country": "United States of America", "GID_0": "USA", "GID_1": "USA.18_1", "GID_2": "USA.18.98_1", "GID_3": null, "GID_4": null, "source_id": "det_1411", "comment": null, "Reserves_data": [ { "id": 541, "year": 2019, "material": "F.coal", "commodity": NaN, "mineral_value_tonnes": 14061600.0, "commodity_value_tonnes": NaN, "grade_ppm": NaN, "source_id": "det_1411", "comment": NaN } ] }, "geometry": { "type": "MultiPoint", "coordinates": [ [ -9183052.616193078458309, 4521902.566224082373083 ] ] } },
{ "type": "Feature", "properties": { "facility_id": "COM00803.00", "facility_name": "MICARE Unit Mines Coahuila", "facility_other_names": null, "facility_type": "Mine", "primary_commodity": "Coal", "commodities_products": "Thermal coal", "facility_equipment": "Open pit, Underground", "production_start": null, "production_end": null, "activity_status": null, "activity_status_year": null, "surface_area_sq_km": null, "concession_area_sq_km": null, "country": "Mexico", "GID_0": "MEX", "GID_1": "MEX.7_1", "GID_2": "MEX.7.22_1", "GID_3": null, "GID_4": null, "source_id": "det_1371", "comment": "Micare Unit is comprised of two mines, one in Coahuila, Mexico, and one in Eagle Pass, Texas, US. The one in Eagle Pass is operated by NACCO Industries, thus for production data of the mine in Coahuila, production data for the whole Micare Unit minus the production of the Eagle Pass mine is taken.", "Reserves_data": [ { "id": 555, "year": 2018, "material": "F.stc", "commodity": NaN, "mineral_value_tonnes": 76000000.0, "commodity_value_tonnes": NaN, "grade_ppm": NaN, "source_id": "det_1371", "comment": NaN } ] }, "geometry": { "type": "MultiPoint", "coordinates": [ [ -11207107.081547897309065, 3311323.480885231401771 ] ] } },
{ "type": "Feature", "properties": { "facility_id": "COM00817.00", "facility_name": "MIMOSA Unit Mines", "facility_other_names": null, "facility_type": "Mine", "primary_commodity": "Coal", "commodities_products": "Thermal coal, Metallurgical coal", "facility_equipment": "Open pit, Underground", "production_start": null, "production_end": null, "activity_status": null, "activity_status_year": null, "surface_area_sq_km": null, "concession_area_sq_km": null, "country": "Mexico", "GID_0": "MEX", "GID_1": "MEX.7_1", "GID_2": "MEX.7.23_1", "GID_3": null, "GID_4": null, "source_id": "det_1372", "comment": null, "Reserves_data": [ { "id": 563, "year": 2018, "material": "F.coal", "commodity": NaN, "mineral_value_tonnes": 188500000.0, "commodity_value_tonnes": NaN, "grade_ppm": NaN, "source_id": "det_1371", "comment": NaN } ] }, "geometry": { "type": "MultiPoint", "coordinates": [ [ -11283309.068294672295451, 3239328.205969168338925 ] ] } },
{ "type": "Feature", "properties": { "facility_id": "COM00828.00", "facility_name": "Moa Project", "facility_other_names": "Moa Nickel, Moa Joint Venture", "facility_type": "Mine", "primary_commodity": "Nickel", "commodities_products": "Nickel, Cobalt", "facility_equipment": "Surface, High-pressure acid leaching plant", "production_start": 1961.0, "production_end": null, "activity_status": null, "activity_status_year": null, "surface_area_sq_km": null, "concession_area_sq_km": 123.22, "country": "Cuba", "GID_0": "CUB", "GID_1": "CUB.7_1", "GID_2": "CUB.7.11_1", "GID_3": null, "GID_4": null, "source_id": "det_1432", "comment": null, "Reserves_data": [ { "id": 575, "year": 2019, "material": "M.lat", "commodity": "Me.Co", "mineral_value_tonnes": 51100000.0, "commodity_value_tonnes": 66800.0, "grade_ppm": 1300.0, "source_id": "det_1432", "comment": NaN }, { "id": 576, "year": 2019, "material": "M.lat", "commodity": "Me.Ni", "mineral_value_tonnes": 51100000.0, "commodity_value_tonnes": 595100.0, "grade_ppm": 11600.0, "source_id": "det_1432", "comment": NaN } ] }, "geometry": { "type": "MultiPoint", "coordinates": [ [ -8343407.345391201786697, 2351080.584454305004328 ] ] } },
{ "type": "Feature", "properties": { "facility_id": "COM00865.00", "facility_name": "Mt Muro", "facility_other_names": null, "facility_type": "Mine", "primary_commodity": "Gold", "commodities_products": "Gold, Silver", "facility_equipment": null, "production_start": null, "production_end": null, "activity_status": "inactive", "activity_status_year": 2014.0, "surface_area_sq_km": null, "concession_area_sq_km": 479.4, "country": "Indonesia", "GID_0": "IDN", "GID_1": "IDN.14_1", "GID_2": "IDN.14.10_1", "GID_3": "IDN.14.10.5_1", "GID_4": "IDN.14.10.5.3_1", "source_id": "det_1434", "comment": null, "Reserves_data": [ { "id": 605, "year": 2020, "material": "O.bulk", "commodity": "Me.Ag", "mineral_value_tonnes": 7586000.0, "commodity_value_tonnes": 7711100000.0, "grade_ppm": 42.0, "source_id": "det_2219", "comment": NaN }, { "id": 606, "year": 2020, "material": "O.bulk", "commodity": "Me.Au", "mineral_value_tonnes": 7586000.0, "commodity_value_tonnes": 458400000.0, "grade_ppm": 2.0, "source_id": "det_2219", "comment": NaN } ] }, "geometry": { "type": "MultiPoint", "coordinates": [ [ 12690421.950433187186718, -1360.569090692197506 ] ] } },
{ "type": "Feature", "properties": { "facility_id": "COM00867.00", "facility_name": "Mt Sterling", "facility_other_names": "East Kentucky, Peelpoplar", "facility_type": "Mine", "primary_commodity": "Coal", "commodities_products": "Coal", "facility_equipment": "Surface", "production_start": null, "production_end": 2012.0, "activity_status": null, "activity_status_year": null, "surface_area_sq_km": null, "concession_area_sq_km": null, "country": "United States of America", "GID_0": "USA", "GID_1": "USA.18_1", "GID_2": "USA.18.77_1", "GID_3": null, "GID_4": null, "source_id": "det_1408", "comment": null, "Reserves_data": [ { "id": 607, "year": 2010, "material": "F.coal", "commodity": NaN, "mineral_value_tonnes": 816480.0, "commodity_value_tonnes": NaN, "grade_ppm": NaN, "source_id": "det_1406", "comment": NaN } ] }, "geometry": { "type": "MultiPoint", "coordinates": [ [ -9166116.042975701391697, 4544442.646753913722932 ] ] } },
{ "type": "Feature", "properties": { "facility_id": "COM00870.00", "facility_name": "Murowa", "facility_other_names": null, "facility_type": "Mine", "primary_commodity": "Other mine", "commodities_products": "Diamonds", "facility_equipment": null, "production_start": 2004.0, "production_end": null, "activity_status": null, "activity_status_year": null, "surface_area_sq_km": null, "concession_area_sq_km": null, "country": "Zimbabwe", "GID_0": "ZWE", "GID_1": "ZWE.10_1", "GID_2": "ZWE.10.8_1", "GID_3": null, "GID_4": null, "source_id": "det_1066", "comment": null, "Reserves_data": [ { "id": 608, "year": 2014, "material": "O.dig", "commodity": "Nm.dia", "mineral_value_tonnes": 4000000.0, "commodity_value_tonnes": NaN, "grade_ppm": NaN, "source_id": "det_1066", "comment": NaN } ] }, "geometry": { "type": "MultiPoint", "coordinates": [ [ 3384552.98209927091375, -2332145.590981699991971 ] ] } },
{ "type": "Feature", "properties": { "facility_id": "COM00909.00", "facility_name": "Nornickel Kola Peninsula", "facility_other_names": null, "facility_type": "Mine", "primary_commodity": "Nickel", "commodities_products": "Copper, Nickel, PGM", "facility_equipment": "Underground, Open pit", "production_start": null, "production_end": null, "activity_status": null, "activity_status_year": null, "surface_area_sq_km": null, "concession_area_sq_km": null, "country": "Russian Federation", "GID_0": "RUS", "GID_1": "RUS.45_1", "GID_2": "RUS.45.11_1", "GID_3": "RUS.45.11.1_1", "GID_4": null, "source_id": "det_1201", "comment": null, "Reserves_data": [ { "id": 633, "year": 2019, "material": "O.bulk", "commodity": "Me.Au", "mineral_value_tonnes": 84682000.0, "commodity_value_tonnes": 0.680388552, "grade_ppm": 0.01, "source_id": "det_1201", "comment": NaN }, { "id": 634, "year": 2019, "material": "O.bulk", "commodity": "Me.Cu", "mineral_value_tonnes": 84682000.0, "commodity_value_tonnes": 256000.0, "grade_ppm": 3000.0, "source_id": "det_1201", "comment": NaN }, { "id": 635, "year": 2019, "material": "O.bulk", "commodity": "Me.Ni", "mineral_value_tonnes": 84682000.0, "commodity_value_tonnes": 524000.0, "grade_ppm": 6200.0, "source_id": "det_1201", "comment": NaN }, { "id": 636, "year": 2019, "material": "O.bulk", "commodity": "Me.Pd", "mineral_value_tonnes": 84682000.0, "commodity_value_tonnes": 2.211262794, "grade_ppm": 0.03, "source_id": "det_1201", "comment": NaN }, { "id": 637, "year": 2019, "material": "O.bulk", "commodity": "Me.Pt", "mineral_value_tonnes": 84682000.0, "commodity_value_tonnes": 1.445825673, "grade_ppm": 0.02, "source_id": "det_1201", "comment": NaN } ] }, "geometry": { "type": "MultiPoint", "coordinates": [ [ 3427673.983630005270243, 10878380.03542036563158 ] ] } },
{ "type": "Feature", "properties": { "facility_id": "COM00910.00", "facility_name": "Nornickel Taimyr Peninsula", "facility_other_names": "Polar Division, Polar Division and Medvezhy Ruchey", "facility_type": "Mine", "primary_commodity": "Nickel", "commodities_products": "Copper, Nickel, PGM", "facility_equipment": "Underground, Open pit", "production_start": null, "production_end": null, "activity_status": null, "activity_status_year": null, "surface_area_sq_km": null, "concession_area_sq_km": null, "country": "Russian Federation", "GID_0": "RUS", "GID_1": "RUS.35_1", "GID_2": "RUS.35.15_1", "GID_3": "RUS.35.15.1_1", "GID_4": null, "source_id": "det_1201", "comment": null, "Reserves_data": [ { "id": 638, "year": 2019, "material": "O.bulk", "commodity": "Me.Au", "mineral_value_tonnes": 672815000.0, "commodity_value_tonnes": 147.41751960000002, "grade_ppm": 0.2399999999999999, "source_id": "det_1201", "comment": NaN }, { "id": 639, "year": 2019, "material": "O.bulk", "commodity": "Me.Cu", "mineral_value_tonnes": 672815000.0, "commodity_value_tonnes": 11598000.0, "grade_ppm": 17200.0, "source_id": "det_1201", "comment": NaN }, { "id": 640, "year": 2019, "material": "O.bulk", "commodity": "Me.Ni", "mineral_value_tonnes": 672815000.0, "commodity_value_tonnes": 6176000.0, "grade_ppm": 9200.0, "source_id": "det_1201", "comment": NaN }, { "id": 641, "year": 2019, "material": "O.bulk", "commodity": "Me.Pd", "mineral_value_tonnes": 672815000.0, "commodity_value_tonnes": 2568.041540955, "grade_ppm": 4.19, "source_id": "det_1201", "comment": NaN }, { "id": 642, "year": 2019, "material": "O.bulk", "commodity": "Me.Pt", "mineral_value_tonnes": 672815000.0, "commodity_value_tonnes": 679.453017741, "grade_ppm": 1.11, "source_id": "det_1201", "comment": NaN } ] }, "geometry": { "type": "MultiPoint", "coordinates": [ [ 9833626.790809506550431, 10915730.208871839568019 ] ] } },
{ "type": "Feature", "properties": { "facility_id": "COM00911.00", "facility_name": "Norte Abierto", "facility_other_names": "Cerro Casale, Caspiche", "facility_type": "Mine", "primary_commodity": "Other mine", "commodities_products": "Gold", "facility_equipment": null, "production_start": null, "production_end": null, "activity_status": "Project", "activity_status_year": 2019.0, "surface_area_sq_km": null, "concession_area_sq_km": null, "country": "Chile", "GID_0": "CHL", "GID_1": "CHL.5_1", "GID_2": "CHL.5.2_1", "GID_3": "CHL.5.2.3_1", "GID_4": null, "source_id": "det_1035", "comment": null, "Reserves_data": [ { "id": 643, "year": 2018, "material": "O.Au", "commodity": "Me.Ag", "mineral_value_tonnes": 1197602000.0, "commodity_value_tonnes": 1663.7201067780002, "grade_ppm": 1.52, "source_id": "det_1035", "comment": NaN }, { "id": 644, "year": 2018, "material": "O.Au", "commodity": "Me.Au", "mineral_value_tonnes": 1197602000.0, "commodity_value_tonnes": 659.013011658, "grade_ppm": 0.6, "source_id": "det_1035", "comment": NaN }, { "id": 645, "year": 2018, "material": "O.Au", "commodity": "Me.Cu", "mineral_value_tonnes": 598801000.0, "commodity_value_tonnes": NaN, "grade_ppm": NaN, "source_id": "det_1035", "comment": NaN } ] }, "geometry": { "type": "MultiPoint", "coordinates": [ [ -7716675.173282926902175, -3219834.05666054552421 ] ] } },
{ "type": "Feature", "properties": { "facility_id": "COM00924.00", "facility_name": "Norwich Park", "facility_other_names": null, "facility_type": "Mine", "primary_commodity": "Coal", "commodities_products": "Metallurgical bituminous coal", "facility_equipment": "Open pit", "production_start": 1979.0, "production_end": 2012.0, "activity_status": null, "activity_status_year": null, "surface_area_sq_km": null, "concession_area_sq_km": null, "country": "Australia", "GID_0": "AUS", "GID_1": "AUS.7_1", "GID_2": "AUS.7.34_1", "GID_3": null, "GID_4": null, "source_id": "det_1135", "comment": null, "Reserves_data": [ { "id": 653, "year": 2019, "material": "F.coc", "commodity": NaN, "mineral_value_tonnes": 229000000.0, "commodity_value_tonnes": NaN, "grade_ppm": NaN, "source_id": "det_1135", "comment": NaN } ] }, "geometry": { "type": "MultiPoint", "coordinates": [ [ 16521405.081676578149199, -2595893.55859692953527 ] ] } },
{ "type": "Feature", "properties": { "facility_id": "COM00934.00", "facility_name": "Ok Tedi", "facility_other_names": null, "facility_type": "Mine", "primary_commodity": "Copper", "commodities_products": "Copper, Gold, Silver", "facility_equipment": "Open pit", "production_start": null, "production_end": null, "activity_status": null, "activity_status_year": null, "surface_area_sq_km": null, "concession_area_sq_km": null, "country": "Papua New Guinea", "GID_0": "PNG", "GID_1": "PNG.22_1", "GID_2": "PNG.22.2_1", "GID_3": null, "GID_4": null, "source_id": "det_1146", "comment": null, "Reserves_data": [ { "id": 658, "year": 2019, "material": "O.bulk", "commodity": "Me.Au", "mineral_value_tonnes": 216000000.0, "commodity_value_tonnes": NaN, "grade_ppm": NaN, "source_id": "det_1879", "comment": NaN }, { "id": 659, "year": 2019, "material": "O.bulk", "commodity": "Me.Cu", "mineral_value_tonnes": 216000000.0, "commodity_value_tonnes": NaN, "grade_ppm": NaN, "source_id": "det_1879", "comment": NaN } ] }, "geometry": { "type": "MultiPoint", "coordinates": [ [ 15711363.463882304728031, -661776.598934368463233 ] ] } },
{ "type": "Feature", "properties": { "facility_id": "COM00952.00", "facility_name": "Paintearth", "facility_other_names": null, "facility_type": "Mine", "primary_commodity": "Coal", "commodities_products": "Sub-bituminous coal", "facility_equipment": "Surface", "production_start": 1956.0, "production_end": null, "activity_status": null, "activity_status_year": null, "surface_area_sq_km": null, "concession_area_sq_km": null, "country": "Canada", "GID_0": "CAN", "GID_1": "CAN.1_1", "GID_2": "CAN.1.17_1", "GID_3": "CAN.1.17.23_1", "GID_4": null, "source_id": "det_1427", "comment": null, "Reserves_data": [ { "id": 673, "year": 2017, "material": "F.sbc", "commodity": NaN, "mineral_value_tonnes": 16394011.2, "commodity_value_tonnes": NaN, "grade_ppm": NaN, "source_id": "det_1427", "comment": NaN } ] }, "geometry": { "type": "MultiPoint", "coordinates": [ [ -12485767.868230640888214, 6883395.500682340934873 ] ] } },
{ "type": "Feature", "properties": { "facility_id": "COM00975.00", "facility_name": "Peranap", "facility_other_names": "Pertambangan Peranap", "facility_type": "Mine", "primary_commodity": "Coal", "commodities_products": "Coal", "facility_equipment": "Open pit", "production_start": null, "production_end": null, "activity_status": null, "activity_status_year": null, "surface_area_sq_km": null, "concession_area_sq_km": 182.3, "country": "Indonesia", "GID_0": "IDN", "GID_1": "IDN.24_1", "GID_2": "IDN.24.4_1", "GID_3": "IDN.24.4.3_1", "GID_4": "IDN.24.4.3.4_1", "source_id": "det_1512", "comment": null, "Reserves_data": [ { "id": 691, "year": 2020, "material": "F.coal", "commodity": NaN, "mineral_value_tonnes": 280000000.0, "commodity_value_tonnes": NaN, "grade_ppm": NaN, "source_id": "det_1512", "comment": NaN } ] }, "geometry": { "type": "MultiPoint", "coordinates": [ [ 11344789.824190896004438, -67644.65268728697265 ] ] } },
{ "type": "Feature", "properties": { "facility_id": "COM00986.00", "facility_name": "Pingguo", "facility_other_names": "Guangxi Plant, Pingguo Plant, Guangxi branch", "facility_type": "Mine, Refinery, Smelter", "primary_commodity": "Aluminium", "commodities_products": "Bauxite, Alumina, Aluminium", "facility_equipment": "Open pit", "production_start": 1994.0, "production_end": null, "activity_status": "active", "activity_status_year": 2019.0, "surface_area_sq_km": null, "concession_area_sq_km": null, "country": "China", "GID_0": "CHN", "GID_1": "CHN.7_1", "GID_2": "CHN.7.1_1", "GID_3": "CHN.7.1.8_1", "GID_4": null, "source_id": "det_1273", "comment": "Primary aluminium Smelter closed in 2014", "Reserves_data": [ { "id": 701, "year": 2019, "material": "O.Al", "commodity": "Me.Al2O3", "mineral_value_tonnes": 80080000.0, "commodity_value_tonnes": NaN, "grade_ppm": NaN, "source_id": "det_1274", "comment": NaN }, { "id": 702, "year": 2019, "material": "O.Al", "commodity": "Nm.SiO2", "mineral_value_tonnes": 80080000.0, "commodity_value_tonnes": NaN, "grade_ppm": NaN, "source_id": "det_1274", "comment": NaN } ] }, "geometry": { "type": "MultiPoint", "coordinates": [ [ 11980147.024015475064516, 2684064.587412737775594 ] ] } },
{ "type": "Feature", "properties": { "facility_id": "COM01006.00", "facility_name": "Poracota", "facility_other_names": null, "facility_type": "Mine", "primary_commodity": "Gold", "commodities_products": "Gold, Silver", "facility_equipment": "Underground", "production_start": 2007.0, "production_end": null, "activity_status": null, "activity_status_year": null, "surface_area_sq_km": null, "concession_area_sq_km": null, "country": "Peru", "GID_0": "PER", "GID_1": "PER.4_1", "GID_2": "PER.4.6_1", "GID_3": "PER.4.6.7_1", "GID_4": null, "source_id": "det_1343", "comment": null, "Reserves_data": [ { "id": 715, "year": 2013, "material": "O.bulk", "commodity": "Me.Ag", "mineral_value_tonnes": 107600.0, "commodity_value_tonnes": NaN, "grade_ppm": NaN, "source_id": "det_1343", "comment": NaN }, { "id": 716, "year": 2013, "material": "O.bulk", "commodity": "Me.Au", "mineral_value_tonnes": 107600.0, "commodity_value_tonnes": NaN, "grade_ppm": NaN, "source_id": "det_1343", "comment": NaN } ] }, "geometry": { "type": "MultiPoint", "coordinates": [ [ -8074049.567664751783013, -1717733.864745889091864 ] ] } },
{ "type": "Feature", "properties": { "facility_id": "COM01013.00", "facility_name": "Princeton", "facility_other_names": "Low Vol, Mid Vol, XMV Mine, Pocahontas", "facility_type": "Mine", "primary_commodity": "Coal", "commodities_products": "Coal, metallurgical coal, PCI", "facility_equipment": "Underground, Open pit", "production_start": null, "production_end": null, "activity_status": null, "activity_status_year": null, "surface_area_sq_km": null, "concession_area_sq_km": null, "country": "United States of America", "GID_0": "USA", "GID_1": "USA.49_1", "GID_2": "USA.49.28_1", "GID_3": null, "GID_4": null, "source_id": "det_1218", "comment": null, "Reserves_data": [ { "id": 721, "year": 2019, "material": "F.coal", "commodity": NaN, "mineral_value_tonnes": 52000000.0, "commodity_value_tonnes": NaN, "grade_ppm": NaN, "source_id": "det_1218", "comment": NaN } ] }, "geometry": { "type": "MultiPoint", "coordinates": [ [ -9023542.996816975995898, 4480575.101513111963868 ] ] } },
{ "type": "Feature", "properties": { "facility_id": "COM01020.00", "facility_name": "PT Atlas Resources Tbk", "facility_other_names": null, "facility_type": "Company", "primary_commodity": "Coal", "commodities_products": "Coal", "facility_equipment": null, "production_start": null, "production_end": null, "activity_status": null, "activity_status_year": null, "surface_area_sq_km": null, "concession_area_sq_km": null, "country": "Indonesia", "GID_0": "IDN", "GID_1": "IDN.15_1 ; IDN.23_1 ; IDN.31_1", "GID_2": "IDN.15.2_1 ; IDN.15.5_1 ; IDN.15.6_1 ; IDN.23.13_1 ; IDN.31.7_1 ; IDN.31.12_1 ; IDN.31.10_1 ; IDN.31.11_1", "GID_3": "IDN.15.2.9_1 ; IDN.15.5.20_1 ; IDN.15.6.10_1 ; IDN.15.6.13_1 ; IDN.15.6.16_1 ; IDN.23.13.4_1 ; IDN.23.13.6_1 ; IDN.31.7.11_1 ; IDN.31.12.4_1 ; IDN.31.10.5_1 ; IDN.31.11.10_1", "GID_4": "IDN.15.2.9.9_1 ; IDN.15.5.20.13_1 ; IDN.15.6.10.17_1 ; IDN.15.6.13.4_1 ; IDN.15.6.16.10_1 ; IDN.23.13.4.4_1 ; IDN.23.13.6.5_1 ; IDN.31.7.11.5_1 ; IDN.31.12.4.2_1 ; IDN.31.10.5.8_1 ; IDN.31.11.10.11_1", "source_id": "det_1516", "comment": null, "Reserves_data": [ { "id": 727, "year": 2018, "material": "F.coal", "commodity": NaN, "mineral_value_tonnes": 305140000.0, "commodity_value_tonnes": NaN, "grade_ppm": NaN, "source_id": "det_1516", "comment": NaN } ] }, "geometry": { "type": "MultiPoint", "coordinates": [ [ 11483027.598559295758605, -279290.111761246866081 ] ] } },
{ "type": "Feature", "properties": { "facility_id": "COM01022.00", "facility_name": "PT Barasentosa Lestari", "facility_other_names": "BSL", "facility_type": "Mine", "primary_commodity": "Coal", "commodities_products": "Thermal coal", "facility_equipment": "Open pit", "production_start": null, "production_end": null, "activity_status": null, "activity_status_year": null, "surface_area_sq_km": null, "concession_area_sq_km": 233.0, "country": "Indonesia", "GID_0": "IDN", "GID_1": "IDN.31_1", "GID_2": "IDN.31.7_1", "GID_3": "IDN.31.7.11_1", "GID_4": "IDN.31.7.11.3_1", "source_id": "det_1528", "comment": null, "Reserves_data": [ { "id": 728, "year": 2020, "material": "F.coal", "commodity": NaN, "mineral_value_tonnes": 189900000.0, "commodity_value_tonnes": NaN, "grade_ppm": NaN, "source_id": "det_1528", "comment": NaN } ] }, "geometry": { "type": "MultiPoint", "coordinates": [ [ 11490821.016289310529828, -290518.546108865528367 ] ] } },
{ "type": "Feature", "properties": { "facility_id": "COM01042.00", "facility_name": "PT Mustika Indah Permai", "facility_other_names": "PT MIP, MIP,", "facility_type": "Mine", "primary_commodity": "Coal", "commodities_products": "Subbituminous coal", "facility_equipment": null, "production_start": null, "production_end": null, "activity_status": null, "activity_status_year": null, "surface_area_sq_km": null, "concession_area_sq_km": 20.0, "country": "Indonesia", "GID_0": "IDN", "GID_1": "IDN.31_1", "GID_2": "IDN.31.3_1", "GID_3": "IDN.31.3.1_1", "GID_4": "IDN.31.3.1.7_1", "source_id": "det_1508", "comment": null, "Reserves_data": [ { "id": 742, "year": 2019, "material": "F.coal", "commodity": NaN, "mineral_value_tonnes": 214000000.0, "commodity_value_tonnes": NaN, "grade_ppm": NaN, "source_id": "det_1508", "comment": NaN } ] }, "geometry": { "type": "MultiPoint", "coordinates": [ [ 11511214.532142106443644, -423288.619216226623394 ] ] } },
{ "type": "Feature", "properties": { "facility_id": "COM01065.00", "facility_name": "Raven", "facility_other_names": "Slones Branch, Lige Hollow", "facility_type": "Mine", "primary_commodity": "Coal", "commodities_products": "Coal", "facility_equipment": "Underground", "production_start": 2006.0, "production_end": null, "activity_status": null, "activity_status_year": null, "surface_area_sq_km": null, "concession_area_sq_km": null, "country": "United States of America", "GID_0": "USA", "GID_1": "USA.18_1", "GID_2": "USA.18.60_1", "GID_3": null, "GID_4": null, "source_id": "det_1407", "comment": null, "Reserves_data": [ { "id": 770, "year": 2010, "material": "F.coal", "commodity": NaN, "mineral_value_tonnes": 17690400.0, "commodity_value_tonnes": NaN, "grade_ppm": NaN, "source_id": "det_1406", "comment": NaN } ] }, "geometry": { "type": "MultiPoint", "coordinates": [ [ -9219836.205076115205884, 4492786.506335818208754 ] ] } },
{ "type": "Feature", "properties": { "facility_id": "COM01070.00", "facility_name": "Rawhide Coal", "facility_other_names": null, "facility_type": "Mine", "primary_commodity": "Coal", "commodities_products": "Thermal coal", "facility_equipment": "Surface", "production_start": null, "production_end": null, "activity_status": null, "activity_status_year": null, "surface_area_sq_km": null, "concession_area_sq_km": null, "country": "United States of America", "GID_0": "USA", "GID_1": "USA.51_1", "GID_2": "USA.51.3_1", "GID_3": null, "GID_4": null, "source_id": "det_1390", "comment": null, "Reserves_data": [ { "id": 776, "year": 2019, "material": "F.stc", "commodity": NaN, "mineral_value_tonnes": 223171200.0, "commodity_value_tonnes": NaN, "grade_ppm": NaN, "source_id": "det_2144", "comment": NaN } ] }, "geometry": { "type": "MultiPoint", "coordinates": [ [ -11739686.295482039451599, 5528497.919223316013813 ] ] } },
{ "type": "Feature", "properties": { "facility_id": "COM01098.00", "facility_name": "Rosemont", "facility_other_names": null, "facility_type": "Mine", "primary_commodity": "Other mine", "commodities_products": "Copper", "facility_equipment": "Open pit", "production_start": null, "production_end": null, "activity_status": null, "activity_status_year": null, "surface_area_sq_km": null, "concession_area_sq_km": null, "country": "United States of America", "GID_0": "USA", "GID_1": "USA.3_1", "GID_2": "USA.3.11_1", "GID_3": null, "GID_4": null, "source_id": "det_1149", "comment": null, "Reserves_data": [ { "id": 800, "year": 2019, "material": "O.bulk", "commodity": "Me.Ag", "mineral_value_tonnes": 537100000.0, "commodity_value_tonnes": NaN, "grade_ppm": NaN, "source_id": "det_2879", "comment": NaN }, { "id": 801, "year": 2019, "material": "O.bulk", "commodity": "Me.Cu", "mineral_value_tonnes": 537100000.0, "commodity_value_tonnes": NaN, "grade_ppm": NaN, "source_id": "det_2879", "comment": NaN }, { "id": 802, "year": 2019, "material": "O.bulk", "commodity": "Me.Mo", "mineral_value_tonnes": 537100000.0, "commodity_value_tonnes": NaN, "grade_ppm": NaN, "source_id": "det_2879", "comment": NaN } ] }, "geometry": { "type": "MultiPoint", "coordinates": [ [ -12323894.445201301947236, 3744789.371204766910523 ] ] } },
{ "type": "Feature", "properties": { "facility_id": "COM01103.00", "facility_name": "Ruby Hill", "facility_other_names": null, "facility_type": "Mine", "primary_commodity": "Gold", "commodities_products": "Gold", "facility_equipment": null, "production_start": null, "production_end": null, "activity_status": null, "activity_status_year": null, "surface_area_sq_km": null, "concession_area_sq_km": null, "country": "United States of America", "GID_0": "USA", "GID_1": "USA.29_1", "GID_2": "USA.29.7_1", "GID_3": null, "GID_4": null, "source_id": "det_1041", "comment": null, "Reserves_data": [ { "id": 809, "year": 2007, "material": "O.Au", "commodity": "Me.Au", "mineral_value_tonnes": 18763000.0, "commodity_value_tonnes": 26.365056390000003, "grade_ppm": 1.4174761565000005, "source_id": "det_1041", "comment": NaN } ] }, "geometry": { "type": "MultiPoint", "coordinates": [ [ -12912294.386006131768227, 4792254.886731868609786 ] ] } },
{ "type": "Feature", "properties": { "facility_id": "COM01158.00", "facility_name": "Seruyung", "facility_other_names": null, "facility_type": "Mine", "primary_commodity": "Gold", "commodities_products": "Gold", "facility_equipment": "Heap leaching plant", "production_start": 2014.0, "production_end": null, "activity_status": null, "activity_status_year": null, "surface_area_sq_km": null, "concession_area_sq_km": 35.6, "country": "Indonesia", "GID_0": "IDN", "GID_1": "IDN.15_1", "GID_2": "IDN.15.9_1", "GID_3": "IDN.15.9.8_1", "GID_4": "IDN.15.9.8.4_1", "source_id": "det_1532", "comment": null, "Reserves_data": [ { "id": 843, "year": 2019, "material": "O.Au", "commodity": "Me.Au", "mineral_value_tonnes": 4300000.0, "commodity_value_tonnes": 2.466408501, "grade_ppm": 0.63, "source_id": "det_2791", "comment": NaN } ] }, "geometry": { "type": "MultiPoint", "coordinates": [ [ 13049969.768120128661394, 434244.773204040480778 ] ] } },
{ "type": "Feature", "properties": { "facility_id": "COM01173.00", "facility_name": "Sheerness", "facility_other_names": null, "facility_type": "Mine", "primary_commodity": "Coal", "commodities_products": "Sub-bituminous coal", "facility_equipment": "Surface", "production_start": 1984.0, "production_end": null, "activity_status": null, "activity_status_year": null, "surface_area_sq_km": null, "concession_area_sq_km": null, "country": "Canada", "GID_0": "CAN", "GID_1": "CAN.1_1", "GID_2": "CAN.1.14_1", "GID_3": "CAN.1.14.7_1", "GID_4": null, "source_id": "det_1427", "comment": null, "Reserves_data": [ { "id": 847, "year": 2017, "material": "F.sbc", "commodity": NaN, "mineral_value_tonnes": 17944416.0, "commodity_value_tonnes": NaN, "grade_ppm": NaN, "source_id": "det_1427", "comment": NaN } ] }, "geometry": { "type": "MultiPoint", "coordinates": [ [ -12430805.528311874717474, 6708175.758287440054119 ] ] } },
{ "type": "Feature", "properties": { "facility_id": "COM01178.00", "facility_name": "Shila-Paula", "facility_other_names": null, "facility_type": "Mine", "primary_commodity": "Gold", "commodities_products": "Gold, Silver", "facility_equipment": "Underground", "production_start": null, "production_end": null, "activity_status": null, "activity_status_year": null, "surface_area_sq_km": null, "concession_area_sq_km": null, "country": "Peru", "GID_0": "PER", "GID_1": "PER.4_1", "GID_2": "PER.4.4_1", "GID_3": "PER.4.4.4_1", "GID_4": null, "source_id": "det_1343", "comment": null, "Reserves_data": [ { "id": 850, "year": 2013, "material": "O.bulk", "commodity": "Me.Ag", "mineral_value_tonnes": 12313.0, "commodity_value_tonnes": NaN, "grade_ppm": NaN, "source_id": "det_1343", "comment": NaN }, { "id": 851, "year": 2013, "material": "O.bulk", "commodity": "Me.Au", "mineral_value_tonnes": 12313.0, "commodity_value_tonnes": NaN, "grade_ppm": NaN, "source_id": "det_1343", "comment": NaN } ] }, "geometry": { "type": "MultiPoint", "coordinates": [ [ -8028722.707383430562913, -1729246.242225822294131 ] ] } },
{ "type": "Feature", "properties": { "facility_id": "COM01179.00", "facility_name": "Shilawusu", "facility_other_names": "Haosheng Company", "facility_type": "Mine", "primary_commodity": "Coal", "commodities_products": "Thermal coal", "facility_equipment": "Underground", "production_start": null, "production_end": null, "activity_status": null, "activity_status_year": null, "surface_area_sq_km": null, "concession_area_sq_km": null, "country": "China", "GID_0": "CHN", "GID_1": "CHN.19_1", "GID_2": "CHN.19.7_1", "GID_3": "CHN.19.7.3_1", "GID_4": null, "source_id": "det_1489", "comment": null, "Reserves_data": [ { "id": 852, "year": 2020, "material": "F.coal", "commodity": NaN, "mineral_value_tonnes": 509000000.0, "commodity_value_tonnes": NaN, "grade_ppm": NaN, "source_id": "det_1489", "comment": NaN } ] }, "geometry": { "type": "MultiPoint", "coordinates": [ [ 12202771.499138943850994, 4724344.760418436489999 ] ] } },
{ "type": "Feature", "properties": { "facility_id": "COM01180.00", "facility_name": "Shoal Creek", "facility_other_names": null, "facility_type": "Mine", "primary_commodity": "Coal", "commodities_products": "Coking coal", "facility_equipment": "Underground", "production_start": null, "production_end": null, "activity_status": null, "activity_status_year": null, "surface_area_sq_km": null, "concession_area_sq_km": null, "country": "United States of America", "GID_0": "USA", "GID_1": "USA.1_1", "GID_2": "USA.1.64_1", "GID_3": null, "GID_4": null, "source_id": "det_1390", "comment": null, "Reserves_data": [ { "id": 853, "year": 2019, "material": "F.coc", "commodity": NaN, "mineral_value_tonnes": 48081600.0, "commodity_value_tonnes": NaN, "grade_ppm": NaN, "source_id": "det_2144", "comment": NaN } ] }, "geometry": { "type": "MultiPoint", "coordinates": [ [ -9718687.875334434211254, 3964508.578858552500606 ] ] } },
{ "type": "Feature", "properties": { "facility_id": "COM01194.00", "facility_name": "Simandou", "facility_other_names": null, "facility_type": "Mine", "primary_commodity": "Other mine", "commodities_products": "Iron ore", "facility_equipment": "Open pit", "production_start": null, "production_end": null, "activity_status": null, "activity_status_year": null, "surface_area_sq_km": null, "concession_area_sq_km": null, "country": "Guinea", "GID_0": "GIN", "GID_1": "GIN.8_1", "GID_2": "GIN.8.4_1", "GID_3": "GIN.8.4.6_1", "GID_4": null, "source_id": "det_1079", "comment": null, "Reserves_data": [ { "id": 868, "year": 2017, "material": "O.Fe", "commodity": "Me.Fe", "mineral_value_tonnes": 6119866814.650389, "commodity_value_tonnes": NaN, "grade_ppm": NaN, "source_id": "det_1079", "comment": NaN } ] }, "geometry": { "type": "MultiPoint", "coordinates": [ [ -990684.891744079533964, 951641.608939344296232 ] ] } },
{ "type": "Feature", "properties": { "facility_id": "COM01195.00", "facility_name": "Simberi", "facility_other_names": null, "facility_type": "Mine", "primary_commodity": "Gold", "commodities_products": "Gold", "facility_equipment": "Open pit", "production_start": 2008.0, "production_end": null, "activity_status": null, "activity_status_year": null, "surface_area_sq_km": null, "concession_area_sq_km": null, "country": "Papua New Guinea", "GID_0": "PNG", "GID_1": "PNG.16_1", "GID_2": "PNG.16.2_1", "GID_3": null, "GID_4": null, "source_id": "det_1460", "comment": null, "Reserves_data": [ { "id": 869, "year": 2020, "material": "O.Au", "commodity": "Me.Au", "mineral_value_tonnes": 31053000.0, "commodity_value_tonnes": 58.68351261, "grade_ppm": 2.0610588348951797, "source_id": "det_1649", "comment": "Oxide ; Sulphide ; Stockpiles" } ] }, "geometry": { "type": "MultiPoint", "coordinates": [ [ 16920406.330276407301426, -292008.557412622030824 ] ] } },
{ "type": "Feature", "properties": { "facility_id": "COM01200.00", "facility_name": "Sissingue", "facility_other_names": null, "facility_type": "Mine", "primary_commodity": "Gold", "commodities_products": "Gold", "facility_equipment": "Open pit, Carbon in Leach plant", "production_start": 2018.0, "production_end": null, "activity_status": null, "activity_status_year": null, "surface_area_sq_km": null, "concession_area_sq_km": null, "country": "Cote d'Ivoire", "GID_0": "CIV", "GID_1": "CIV.10_1", "GID_2": "CIV.10.1_1", "GID_3": "CIV.10.1.3_1", "GID_4": "CIV.10.1.3.1_1", "source_id": "det_1456", "comment": null, "Reserves_data": [ { "id": 871, "year": 2020, "material": "O.Au", "commodity": "Me.Au", "mineral_value_tonnes": 3600000.0, "commodity_value_tonnes": 6.917283612, "grade_ppm": 2.1, "source_id": "det_2853", "comment": NaN } ] }, "geometry": { "type": "MultiPoint", "coordinates": [ [ -688301.113128709956072, 1167737.891596523812041 ] ] } },
{ "type": "Feature", "properties": { "facility_id": "COM01202.00", "facility_name": "Skyline", "facility_other_names": null, "facility_type": "Mine", "primary_commodity": "Coal", "commodities_products": "Coal", "facility_equipment": "Underground", "production_start": null, "production_end": null, "activity_status": null, "activity_status_year": null, "surface_area_sq_km": null, "concession_area_sq_km": 53.540487, "country": "United States of America", "GID_0": "USA", "GID_1": "USA.45_1", "GID_2": "USA.45.4_1", "GID_3": null, "GID_4": null, "source_id": "det_1409", "comment": null, "Reserves_data": [ { "id": 874, "year": 2010, "material": "F.coal", "commodity": NaN, "mineral_value_tonnes": 15513120.000000002, "commodity_value_tonnes": NaN, "grade_ppm": NaN, "source_id": "det_1409", "comment": NaN } ] }, "geometry": { "type": "MultiPoint", "coordinates": [ [ -12378932.181811183691025, 4820186.605471058748662 ] ] } },
{ "type": "Feature", "properties": { "facility_id": "COM01206.00", "facility_name": "Somerville", "facility_other_names": null, "facility_type": "Mine", "primary_commodity": "Coal", "commodities_products": "Thermal coal", "facility_equipment": "Surface", "production_start": null, "production_end": null, "activity_status": null, "activity_status_year": null, "surface_area_sq_km": null, "concession_area_sq_km": null, "country": "United States of America", "GID_0": "USA", "GID_1": "USA.15_1", "GID_2": "USA.15.26_1", "GID_3": null, "GID_4": null, "source_id": "det_1390", "comment": null, "Reserves_data": [ { "id": 876, "year": 2019, "material": "F.stc", "commodity": NaN, "mineral_value_tonnes": 2721600.0, "commodity_value_tonnes": NaN, "grade_ppm": NaN, "source_id": "det_2144", "comment": NaN } ] }, "geometry": { "type": "MultiPoint", "coordinates": [ [ -9725641.512719422578812, 4620499.802981110289693 ] ] } },
{ "type": "Feature", "properties": { "facility_id": "COM01211.00", "facility_name": "South Hallsville No. 1", "facility_other_names": "The Sabine Mining Company", "facility_type": "Mine", "primary_commodity": "Coal", "commodities_products": "Lignite", "facility_equipment": "Surface", "production_start": 1985.0, "production_end": null, "activity_status": null, "activity_status_year": null, "surface_area_sq_km": null, "concession_area_sq_km": null, "country": "United States of America", "GID_0": "USA", "GID_1": "USA.44_1", "GID_2": "USA.44.102_1", "GID_3": null, "GID_4": null, "source_id": "det_1373", "comment": null, "Reserves_data": [ { "id": 879, "year": 2019, "material": "F.coal", "commodity": NaN, "mineral_value_tonnes": 93078720.0, "commodity_value_tonnes": NaN, "grade_ppm": NaN, "source_id": "det_1373", "comment": NaN } ] }, "geometry": { "type": "MultiPoint", "coordinates": [ [ -10522012.419216094538569, 3825950.672751243691891 ] ] } },
{ "type": "Feature", "properties": { "facility_id": "COM01233.00", "facility_name": "SUEK Buryatia", "facility_other_names": null, "facility_type": "Mine", "primary_commodity": "Coal", "commodities_products": "Hard coal", "facility_equipment": null, "production_start": null, "production_end": null, "activity_status": null, "activity_status_year": null, "surface_area_sq_km": null, "concession_area_sq_km": null, "country": "Russian Federation", "GID_0": "RUS", "GID_1": "RUS.83_1", "GID_2": "RUS.83.27_1", "GID_3": "RUS.83.27.1_1", "GID_4": null, "source_id": "det_1553", "comment": null, "Reserves_data": [ { "id": 885, "year": 2020, "material": "F.coc", "commodity": NaN, "mineral_value_tonnes": 302000000.0, "commodity_value_tonnes": NaN, "grade_ppm": NaN, "source_id": "det_2882", "comment": NaN } ] }, "geometry": { "type": "MultiPoint", "coordinates": [ [ 12069006.9760114364326, 6663108.8894850788638 ] ] } },
{ "type": "Feature", "properties": { "facility_id": "COM01238.00", "facility_name": "SUEK Primorye", "facility_other_names": "Primorskugol OAO", "facility_type": "Mine", "primary_commodity": "Coal", "commodities_products": "Hard coal, Brown coal", "facility_equipment": null, "production_start": null, "production_end": null, "activity_status": null, "activity_status_year": null, "surface_area_sq_km": null, "concession_area_sq_km": null, "country": "Russian Federation", "GID_0": "RUS", "GID_1": "RUS.56_1", "GID_2": "RUS.56.19_1 ; RUS.56.22_1", "GID_3": "RUS.56.19.1_1 ; RUS.56.22.1_1", "GID_4": null, "source_id": "det_1553", "comment": null, "Reserves_data": [ { "id": 890, "year": 2020, "material": "F.coc", "commodity": NaN, "mineral_value_tonnes": 2000000.0, "commodity_value_tonnes": NaN, "grade_ppm": NaN, "source_id": "det_2882", "comment": NaN }, { "id": 891, "year": 2020, "material": "F.lig", "commodity": NaN, "mineral_value_tonnes": 100000000.0, "commodity_value_tonnes": NaN, "grade_ppm": NaN, "source_id": "det_2882", "comment": NaN } ] }, "geometry": { "type": "MultiPoint", "coordinates": [ [ 14663533.354345768690109, 5495613.556974611245096 ] ] } },
{ "type": "Feature", "properties": { "facility_id": "COM01239.00", "facility_name": "SUEK Zabaikalye", "facility_other_names": null, "facility_type": "Mine", "primary_commodity": "Coal", "commodities_products": "Hard coal, Brown coal", "facility_equipment": null, "production_start": null, "production_end": null, "activity_status": null, "activity_status_year": null, "surface_area_sq_km": null, "concession_area_sq_km": null, "country": "Russian Federation", "GID_0": "RUS", "GID_1": "RUS.83_1", "GID_2": "RUS.83.6_1 ; RUS.83.10_1 ; RUS.83.13_1", "GID_3": "RUS.83.6.1_1 ; RUS.83.10.1_1 ; RUS.83.13.1_1", "GID_4": null, "source_id": "det_1553", "comment": null, "Reserves_data": [ { "id": 892, "year": 2020, "material": "F.coc", "commodity": NaN, "mineral_value_tonnes": 70000000.0, "commodity_value_tonnes": NaN, "grade_ppm": NaN, "source_id": "det_2882", "comment": NaN }, { "id": 893, "year": 2020, "material": "F.lig", "commodity": NaN, "mineral_value_tonnes": 464000000.0, "commodity_value_tonnes": NaN, "grade_ppm": NaN, "source_id": "det_2882", "comment": NaN } ] }, "geometry": { "type": "MultiPoint", "coordinates": [ [ 13157722.217171551659703, 7784975.012035528197885 ] ] } },
{ "type": "Feature", "properties": { "facility_id": "COM01244.00", "facility_name": "Sycamore and Imperial", "facility_other_names": "Wolf Run Mining Buckhannon Division, Buckhannon Division, Sycamore No.2, Buckhannon/Spruce Division", "facility_type": "Mine", "primary_commodity": "Coal", "commodities_products": "Coal, Metallurgical coal, Thermal coal", "facility_equipment": "Underground", "production_start": null, "production_end": null, "activity_status": null, "activity_status_year": null, "surface_area_sq_km": null, "concession_area_sq_km": null, "country": "United States of America", "GID_0": "USA", "GID_1": "USA.49_1", "GID_2": "USA.49.49_1", "GID_3": null, "GID_4": null, "source_id": "det_1405", "comment": null, "Reserves_data": [ { "id": 897, "year": 2013, "material": "F.coal", "commodity": NaN, "mineral_value_tonnes": 7076160.0, "commodity_value_tonnes": NaN, "grade_ppm": NaN, "source_id": "det_1403", "comment": NaN } ] }, "geometry": { "type": "MultiPoint", "coordinates": [ [ -8930893.086379097774625, 4724000.324128212407231 ] ] } },
{ "type": "Feature", "properties": { "facility_id": "COM01256.00", "facility_name": "Tanami", "facility_other_names": null, "facility_type": "Mine", "primary_commodity": "Gold", "commodities_products": "Gold", "facility_equipment": "Underground", "production_start": 1983.0, "production_end": null, "activity_status": null, "activity_status_year": null, "surface_area_sq_km": null, "concession_area_sq_km": null, "country": "Australia", "GID_0": "AUS", "GID_1": "AUS.6_1", "GID_2": "AUS.6.4_1", "GID_3": null, "GID_4": null, "source_id": "det_1005", "comment": null, "Reserves_data": [ { "id": 910, "year": 2017, "material": "O.Au", "commodity": "Me.Au", "mineral_value_tonnes": 26400000.0, "commodity_value_tonnes": 125.02139643, "grade_ppm": 4.706020839580001, "source_id": "det_2839", "comment": NaN } ] }, "geometry": { "type": "MultiPoint", "coordinates": [ [ 14508755.834845498204231, -2337607.61720873368904 ] ] } },
{ "type": "Feature", "properties": { "facility_id": "COM01276.00", "facility_name": "The Boliden Area", "facility_other_names": null, "facility_type": "Mine", "primary_commodity": "Zinc", "commodities_products": "Copper, Zinc, Lead, Silver, Gold, Tellurium", "facility_equipment": null, "production_start": null, "production_end": null, "activity_status": null, "activity_status_year": null, "surface_area_sq_km": null, "concession_area_sq_km": null, "country": "Sweden", "GID_0": "SWE", "GID_1": "SWE.18_1", "GID_2": "SWE.18.4_1 ; SWE.18.7_1 ; SWE.18.9_1", "GID_3": null, "GID_4": null, "source_id": "det_1124", "comment": null, "Reserves_data": [ { "id": 933, "year": 2018, "material": "O.bulk", "commodity": "Me.Ag", "mineral_value_tonnes": 12080000.0, "commodity_value_tonnes": NaN, "grade_ppm": NaN, "source_id": "det_1124", "comment": "proven ; probable " }, { "id": 934, "year": 2018, "material": "O.bulk", "commodity": "Me.Au", "mineral_value_tonnes": 12080000.0, "commodity_value_tonnes": NaN, "grade_ppm": NaN, "source_id": "det_1124", "comment": "proven ; probable " }, { "id": 935, "year": 2018, "material": "O.bulk", "commodity": "Me.Cu", "mineral_value_tonnes": 7880000.0, "commodity_value_tonnes": NaN, "grade_ppm": NaN, "source_id": "det_1124", "comment": "proven ; probable " }, { "id": 936, "year": 2018, "material": "O.bulk", "commodity": "Me.Pb", "mineral_value_tonnes": 7870000.0, "commodity_value_tonnes": NaN, "grade_ppm": NaN, "source_id": "det_1124", "comment": "probable ; proven " }, { "id": 937, "year": 2018, "material": "O.bulk", "commodity": "Me.Te", "mineral_value_tonnes": 4200000.0, "commodity_value_tonnes": NaN, "grade_ppm": NaN, "source_id": "det_1124", "comment": "proven ; probable" }, { "id": 938, "year": 2018, "material": "O.bulk", "commodity": "Me.Zn", "mineral_value_tonnes": 7880000.0, "commodity_value_tonnes": NaN, "grade_ppm": NaN, "source_id": "det_1124", "comment": "proven ; probable " } ] }, "geometry": { "type": "MultiPoint", "coordinates": [ [ 2236596.677836162038147, 9588255.772001706063747 ] ] } },
{ "type": "Feature", "properties": { "facility_id": "COM01304.00", "facility_name": "Tusky", "facility_other_names": null, "facility_type": "Mine", "primary_commodity": "Other mine", "commodities_products": "Bituminous coal", "facility_equipment": "Surface", "production_start": 2003.0, "production_end": null, "activity_status": null, "activity_status_year": null, "surface_area_sq_km": null, "concession_area_sq_km": null, "country": "United States of America", "GID_0": "USA", "GID_1": "USA.36_1", "GID_2": "USA.36.80_1", "GID_3": null, "GID_4": null, "source_id": "det_1431", "comment": null, "Reserves_data": [ { "id": 959, "year": 2018, "material": "F.obc", "commodity": NaN, "mineral_value_tonnes": 14968800.0, "commodity_value_tonnes": NaN, "grade_ppm": NaN, "source_id": "det_1431", "comment": NaN } ] }, "geometry": { "type": "MultiPoint", "coordinates": [ [ -9071551.917314050719142, 4913191.063714208081365 ] ] } },
{ "type": "Feature", "properties": { "facility_id": "COM01307.00", "facility_name": "Twentymile", "facility_other_names": null, "facility_type": "Mine", "primary_commodity": "Coal", "commodities_products": "Thermal coal", "facility_equipment": "Underground", "production_start": null, "production_end": null, "activity_status": null, "activity_status_year": null, "surface_area_sq_km": null, "concession_area_sq_km": null, "country": "United States of America", "GID_0": "USA", "GID_1": "USA.6_1", "GID_2": "USA.6.55_1", "GID_3": null, "GID_4": null, "source_id": "det_1390", "comment": null, "Reserves_data": [ { "id": 960, "year": 2019, "material": "F.stc", "commodity": NaN, "mineral_value_tonnes": 4536000.0, "commodity_value_tonnes": NaN, "grade_ppm": NaN, "source_id": "det_2144", "comment": NaN } ] }, "geometry": { "type": "MultiPoint", "coordinates": [ [ -11915582.311940083280206, 4925617.862260464578867 ] ] } },
{ "type": "Feature", "properties": { "facility_id": "COM01313.00", "facility_name": "Ubuntu", "facility_other_names": null, "facility_type": "Mine", "primary_commodity": "Coal", "commodities_products": "Thermal coal", "facility_equipment": null, "production_start": 2020.0, "production_end": null, "activity_status": null, "activity_status_year": null, "surface_area_sq_km": null, "concession_area_sq_km": null, "country": "South Africa", "GID_0": "ZAF", "GID_1": "ZAF.6_1", "GID_2": "ZAF.6.3_1", "GID_3": "ZAF.6.3.6_1", "GID_4": "ZAF.6.3.6.7_1", "source_id": "det_1546", "comment": null, "Reserves_data": [ { "id": 965, "year": 2020, "material": "F.stc", "commodity": NaN, "mineral_value_tonnes": 9000000.0, "commodity_value_tonnes": NaN, "grade_ppm": NaN, "source_id": "det_1546", "comment": NaN } ] }, "geometry": { "type": "MultiPoint", "coordinates": [ [ 3213059.688627161551267, -3023079.227653007488698 ] ] } },
{ "type": "Feature", "properties": { "facility_id": "COM01335.00", "facility_name": "Vindex", "facility_other_names": "Vindex Energy Corporation", "facility_type": "Mine", "primary_commodity": "Coal", "commodities_products": "Metallurgical coa, Thermal coal", "facility_equipment": "Surface", "production_start": null, "production_end": 2016.0, "activity_status": null, "activity_status_year": null, "surface_area_sq_km": null, "concession_area_sq_km": 165.51821, "country": "United States of America", "GID_0": "USA", "GID_1": "USA.47_1", "GID_2": "USA.47.4_1", "GID_3": null, "GID_4": null, "source_id": "det_1404", "comment": null, "Reserves_data": [ { "id": 977, "year": 2013, "material": "F.coal", "commodity": NaN, "mineral_value_tonnes": 3538080.0, "commodity_value_tonnes": NaN, "grade_ppm": NaN, "source_id": "det_1403", "comment": NaN } ] }, "geometry": { "type": "MultiPoint", "coordinates": [ [ -8879833.582470282912254, 4550874.494466233998537 ] ] } },
{ "type": "Feature", "properties": { "facility_id": "COM01338.00", "facility_name": "Viper", "facility_other_names": "Illinois, ICG Illinois", "facility_type": "Mine", "primary_commodity": "Coal", "commodities_products": "Thermal coal", "facility_equipment": "Underground", "production_start": null, "production_end": null, "activity_status": null, "activity_status_year": null, "surface_area_sq_km": null, "concession_area_sq_km": null, "country": "United States of America", "GID_0": "USA", "GID_1": "USA.14_1", "GID_2": "USA.14.85_1", "GID_3": null, "GID_4": null, "source_id": "det_1399", "comment": null, "Reserves_data": [ { "id": 978, "year": 2019, "material": "F.stc", "commodity": NaN, "mineral_value_tonnes": 36650880.0, "commodity_value_tonnes": NaN, "grade_ppm": NaN, "source_id": "det_1399", "comment": NaN } ] }, "geometry": { "type": "MultiPoint", "coordinates": [ [ -9966445.75492806173861, 4861867.59139119554311 ] ] } },
{ "type": "Feature", "properties": { "facility_id": "COM01346.00", "facility_name": "Wafi-Golpu", "facility_other_names": null, "facility_type": "Mine", "primary_commodity": "Other mine", "commodities_products": "Copper, Gold", "facility_equipment": "Open pit, Underground", "production_start": null, "production_end": null, "activity_status": "Exploration", "activity_status_year": 2018.0, "surface_area_sq_km": null, "concession_area_sq_km": null, "country": "Papua New Guinea", "GID_0": "PNG", "GID_1": "PNG.14_1", "GID_2": "PNG.14.1_1", "GID_3": null, "GID_4": null, "source_id": "det_1096", "comment": null, "Reserves_data": [ { "id": 979, "year": 2018, "material": "O.Au", "commodity": "Me.Au", "mineral_value_tonnes": 400000000.0, "commodity_value_tonnes": 311.84475443, "grade_ppm": 0.8600000000000001, "source_id": "det_2841", "comment": NaN }, { "id": 980, "year": 2018, "material": "O.Au", "commodity": "Me.Cu", "mineral_value_tonnes": 400000000.0, "commodity_value_tonnes": 5000000.0, "grade_ppm": 12000.0, "source_id": "det_2841", "comment": NaN } ] }, "geometry": { "type": "MultiPoint", "coordinates": [ [ 16302991.008724108338356, -765803.479024291737005 ] ] } },
{ "type": "Feature", "properties": { "facility_id": "COM01353.00", "facility_name": "Warrior Complex", "facility_other_names": "Warrior Coal", "facility_type": "Mine", "primary_commodity": "Coal", "commodities_products": "Coal", "facility_equipment": "Underground", "production_start": 1985.0, "production_end": null, "activity_status": null, "activity_status_year": null, "surface_area_sq_km": null, "concession_area_sq_km": null, "country": "United States of America", "GID_0": "USA", "GID_1": "USA.18_1", "GID_2": "USA.18.54_1", "GID_3": null, "GID_4": null, "source_id": "det_1411", "comment": null, "Reserves_data": [ { "id": 986, "year": 2019, "material": "F.coal", "commodity": NaN, "mineral_value_tonnes": 81375840.0, "commodity_value_tonnes": NaN, "grade_ppm": NaN, "source_id": "det_1411", "comment": NaN } ] }, "geometry": { "type": "MultiPoint", "coordinates": [ [ -9752908.3646882455796, 4492752.456115714274347 ] ] } },
{ "type": "Feature", "properties": { "facility_id": "COM01364.00", "facility_name": "Western Range Project", "facility_other_names": "ArcelorMittal Liberia, AMLH", "facility_type": "Mine", "primary_commodity": "Iron", "commodities_products": "Iron", "facility_equipment": "Open pit", "production_start": 2011.0, "production_end": null, "activity_status": null, "activity_status_year": null, "surface_area_sq_km": null, "concession_area_sq_km": null, "country": "Liberia", "GID_0": "LBR", "GID_1": "LBR.12_1", "GID_2": "LBR.12.3_1", "GID_3": "LBR.12.3.6_1", "GID_4": null, "source_id": "det_1218", "comment": null, "Reserves_data": [ { "id": 991, "year": 2019, "material": "O.Fe", "commodity": "Me.Fe", "mineral_value_tonnes": 480000000.0, "commodity_value_tonnes": NaN, "grade_ppm": NaN, "source_id": "det_1218", "comment": NaN } ] }, "geometry": { "type": "MultiPoint", "coordinates": [ [ -950691.468418343109079, 844820.683563191210851 ] ] } },
{ "type": "Feature", "properties": { "facility_id": "COM01419.00", "facility_name": "Zhaolou", "facility_other_names": "Heze Nenghua, Heze Neng Hua Company Ltd.", "facility_type": "Mine", "primary_commodity": "Coal", "commodities_products": "Coking coal", "facility_equipment": "Underground", "production_start": 2009.0, "production_end": null, "activity_status": null, "activity_status_year": null, "surface_area_sq_km": null, "concession_area_sq_km": null, "country": "China", "GID_0": "CHN", "GID_1": "CHN.23_1", "GID_2": "CHN.23.4_1", "GID_3": "CHN.23.4.9_1", "GID_4": null, "source_id": "det_1490", "comment": null, "Reserves_data": [ { "id": 1030, "year": 2020, "material": "F.coal", "commodity": NaN, "mineral_value_tonnes": 25000000.0, "commodity_value_tonnes": NaN, "grade_ppm": NaN, "source_id": "det_1489", "comment": NaN } ] }, "geometry": { "type": "MultiPoint", "coordinates": [ [ 12907789.399545095860958, 4216535.284533648751676 ] ] } }
]
}
